names,address,latitude,longitude,place_id,longitude.1,latitude.1
1st Choice Market,"3019 E 91st St, Chicago, IL 60617, USA",41.729917,-87.5503556,ChIJ2SbgWOMnDogRYc1ts4snm0o,-87.5503556,41.729917
3 Greens Market,"354 W Hubbard St, Chicago, IL 60654, USA",41.8900446,-87.6377556,ChIJJxcKBrYsDogRwQoVizevDwQ,-87.6377556,41.8900446
61st Street Farmers Market,"6100 S Blackstone Ave, Chicago, IL 60637, USA",41.78407,-87.590568,ChIJh3NjkxopDogRBkkhjgL5KW0,-87.590568,41.78407
95th Market,"336 E 95th St, Chicago, IL 60619, USA",41.722183,-87.615095,ChIJOzTbawkmDogRp_2SJADIU9s,-87.615095,41.722183
A & B Food Market,"5057 W Division St, Chicago, IL 60651, USA",41.9021889,-87.7531213,ChIJ81MC3cvMD4gRXD0mYp35mfQ,-87.7531213,41.9021889
A & J Grocery,"6406 N Claremont Ave, Chicago, IL 60645, USA",41.9980875,-87.688928,ChIJKYRPId3RD4gRCk1D8a6kmoc,-87.688928,41.9980875
A & L Market Inc,"8329 S Cottage Grove Ave, Chicago, IL 60619, USA",41.743101,-87.604608,ChIJO_5WYqQoDogRREFaX57a_Pw,-87.604608,41.743101
A & L Supermarket Inc,"7458 S Cottage Grove Ave, Chicago, IL 60619, USA",41.758731,-87.605765,ChIJ8UyU-sYoDogRQiSPP_TiFBQ,-87.605765,41.758731
A & N Food Market,"3222 W Cermak Rd, Chicago, IL 60623, USA",41.8518707,-87.7062521,ChIJqad7XnsyDogR5gm6yZUrI58,-87.7062521,41.8518707
A & N Grocery,"4759 W Lake St, Chicago, IL 60644, USA",41.8863866,-87.7453072,ChIJAQCwFCUzDogRaxTybIkVm-E,-87.7453072,41.8863866
A&G International Fresh Market,5630 West Belmont Avenue,41.9388456,-87.7679656,n3621635474,-87.7679656,41.9388456
AAA Grocery Inc,"2902 W Madison St, Chicago, IL 60612, USA",41.8812433,-87.6989404,ChIJXamqyaAyDogRBb0apPvlCFY,-87.6989404,41.8812433
Adrian's Food Market,"3700 W Diversey Ave, Chicago, IL 60647, USA",41.9322209,-87.7198243,ChIJ6ZrNgwvND4gRc8WUj0werWA,-87.7198243,41.9322209
Adrian's Foods Market,"3258 W Montrose Ave, Chicago, IL 60618, USA",41.961284,-87.710556,ChIJacaLKOzND4gR3B3ZtnpufFc,-87.710556,41.961284
African Groceries & Art,"722 E 79th St, Chicago, IL 60619, USA",41.7513541,-87.6067309,ChIJ9TLghLkoDogRLGWoSLXhZ9Y,-87.6067309,41.7513541
Aida Food Market,"7923 S Halsted St, Chicago, IL 60620, USA",41.7499256,-87.6439109,ChIJMa65zm4vDogRrvnk9kE1QVg,-87.6439109,41.7499256
Al Khyam Bakery & Grocery,"4738 N Kedzie Ave, Chicago, IL 60625, USA",41.9679664,-87.7085981,ChIJMXN5PeXND4gRSiG6NW68HcA,-87.7085981,41.9679664
ALDI,"7345 S State St, Chicago, IL 60619, USA",41.7604006,-87.6244088,ChIJyY8ByDYvDogRzLCWYOxs3T4,-87.6244088,41.7604006
ALDI,"7800 S South Chicago Ave, Chicago, IL 60619, USA",41.7525337,-87.587817,ChIJ3VRsZY0oDogRD5UMUkyC_i0,-87.587817,41.7525337
ALDI,"7627 S Ashland Ave, Chicago, IL 60620, USA",41.7547282,-87.6631021,ChIJ_8zRzpgvDogRwdIctnOWbew,-87.6631021,41.7547282
ALDI,"6621 S Cottage Grove Ave, Chicago, IL 60637, USA",41.7745183,-87.6053908,ChIJL9w47dgoDogRVLsI5joo9K0,-87.6053908,41.7745183
ALDI,"4501 S Pulaski Rd, Chicago, IL 60632, USA",41.8100643,-87.723271,ChIJiWzRwY4xDogR5LTunXYvQwQ,-87.723271,41.8100643
ALDI,"821 W 115th St, Chicago, IL 60643, USA",41.6836776,-87.6432717,ChIJtex4QkYkDogRtKHDPdcfNCA,-87.6432717,41.6836776
ALDI,"10532 S Indianapolis Ave, Chicago, IL 60617, USA",41.7034698,-87.5257601,ChIJk8M_8WXYEYgRFQKr9qklD90,-87.5257601,41.7034698
ALDI,"4934 S Kedzie Ave, Chicago, IL 60632, USA",41.8032144,-87.7057296,ChIJ0e3JPeQxDogR_vS7wxH5vBs,-87.7057296,41.8032144
ALDI,"8500 S Holland Rd, Chicago, IL 60620, USA",41.7392992,-87.632434,ChIJl93CvFsvDogR7087_QjY9oY,-87.632434,41.7392992
ALDI,"1508 W 47th St, Chicago, IL 60609, USA",41.8093803,-87.6628652,ChIJFRUFfnsuDogRXW-FFtP9oaU,-87.6628652,41.8093803
ALDI,"2333 E 95th St, Chicago, IL 60617, USA",41.7222008,-87.5667186,ChIJv8aDAMUnDogRspVDwTQj6I0,-87.5667186,41.7222008
ALDI,"1739 W Cermak Rd, Chicago, IL 60608, USA",41.8515741,-87.6701598,ChIJoXitY6YtDogRKkQ8OuT1g68,-87.6701598,41.8515741
ALDI,"8333 S Cicero Ave, Chicago, IL 60652, USA",41.7405901,-87.7404682,ChIJA4h9boEwDogRwiHTO8k05P8,-87.7404682,41.7405901
ALDI,"6025 S Western Ave, Chicago, IL 60636, USA",41.7838081,-87.6829892,ChIJH6qlOzEuDogRLB49OfQFubE,-87.6829892,41.7838081
ALDI,"800 N Kedzie Ave, Chicago, IL 60651, USA",41.8968152,-87.7084912,ChIJ7-1yTq0yDogRFNj2BYzT6aA,-87.7084912,41.8968152
ALDI,"3030 S Kedzie Ave, Chicago, IL 60623, USA",41.8382567,-87.7056491,ChIJY1vY33IyDogRuQjmD2T3HVk,-87.7056491,41.8382567
ALDI,"3835 W Madison St, Chicago, IL 60624, USA",41.8805215,-87.7224209,ChIJb04h38MyDogR94hsahvPU9w,-87.7224209,41.8805215
ALDI,"1753 N Milwaukee Ave, Chicago, IL 60647, USA",41.9134231,-87.6817959,ChIJlbqUjr7SD4gRGjWaiksfsyc,-87.6817959,41.9134231
ALDI,"2828 N Central Ave, Chicago, IL 60634, USA",41.9319734,-87.7666255,ChIJp21VWY_MD4gRMfH3n4yKeq0,-87.7666255,41.9319734
ALDI,"1440 N Kostner Ave, Chicago, IL 60651, USA",41.907172,-87.7366206,ChIJYzW3_SfND4gRgDtXWAy8qVU,-87.7366206,41.907172
ALDI,"1836 N Clybourn Ave, Chicago, IL 60614, USA",41.9145652,-87.6551582,ChIJ8-z6wCHTD4gRDlwfnijjU_Q,-87.6551582,41.9145652
ALDI,"3320 W Belmont Ave, Chicago, IL 60618, USA",41.9398328,-87.7118467,ChIJT9q-O5zND4gRNQ72iu0mevs,-87.7118467,41.9398328
ALDI,"5001 N Pulaski Rd, Chicago, IL 60630, USA",41.9728622,-87.7277397,ChIJTVdSQtfND4gR_B2e5xJFBWE,-87.7277397,41.9728622
ALDI,"2431 W Montrose Ave, Chicago, IL 60618, USA",41.9610857,-87.6898562,ChIJz1A5fw7SD4gRZ7d5ojfaslQ,-87.6898562,41.9610857
ALDI,"4645 W Diversey Ave, Chicago, IL 60639, USA",41.9308145,-87.7428243,ChIJ2YEm6vvMD4gRdkG7XbjU3u0,-87.7428243,41.9308145
ALDI,"4030 W Wrightwood Ave, Chicago, IL 60639, USA",41.928672,-87.7287719,ChIJSzURXQXND4gRN5_CDTzwfIw,-87.7287719,41.928672
ALDI,"6221 North Broadway, Chicago, IL 60660, USA",41.9951182,-87.6600081,ChIJp6ztgJ_RD4gR9Imcvs8Jo0c,-87.6600081,41.9951182
ALDI,"620 W 63rd St, Chicago, IL 60621, USA",41.7804045,-87.6404634,ChIJSem64eAuDogRFRUFRhQde7s,-87.6404634,41.7804045
ALDI,"2600 N Clybourn Ave, Chicago, IL 60614, USA",41.9285993,-87.6747807,ChIJO7Yjs_PSD4gRT2Oua02Jg3M,-87.6747807,41.9285993
ALDI,"4500 North Broadway, Chicago, IL 60640, USA",41.9637664,-87.6568743,ChIJeXUOE83TD4gR2aY-FrI5uew,-87.6568743,41.9637664
ALDI,"5629 W Fillmore St, Chicago, IL 60644, USA",41.867234,-87.7649071,ChIJ1-D7PHAzDogRCS7l7qIqdVY,-87.7649071,41.867234
ALDI,"6520 W Fullerton Ave, Chicago, IL 60707, USA",41.925979,-87.7886595,ChIJZ0kqKW_LD4gRKw4-MW-HoYs,-87.7886595,41.925979
ALDI,"6220 N California Ave, Chicago, IL 60659, USA",41.9943932,-87.6998768,ChIJCT7FoR_OD4gRkGJEAiftYOA,-87.6998768,41.9943932
Aldi,5775 South Archer Avenue,41.79623944,-87.75715162,w162508392,-87.75715162,41.79623944
Aldi,2211 Oakton Street,42.02761282,-87.70456235,w173484288,-87.70456235,42.02761282
Aldi,1630 South Ardmore Avenue,41.85940321,-87.97891152,w194775094,-87.97891152,41.85940321
ALDI,1246 East 87th Street,41.73706951,-87.59396305,w211068269,-87.59396305,41.73706951
Aldi,1237 State Street,41.65508304,-87.99793645,w318161409,-87.99793645,41.65508304
Aldi,NA NA,42.02859956,-87.89276651,w430887629,-87.89276651,42.02859956
Aldi,4630 West Cermak Road,41.85169728,-87.74046828,w470122702,-87.74046828,41.85169728
Aldi,NA NA,41.75066694,-88.00166077,w547783941,-88.00166077,41.75066694
ALDI,4833 Oakton Street,42.0249388,-87.7485669,n281003161,-87.7485669,42.0249388
Aldi,NA NA,41.7165991,-87.781781,n2300431090,-87.781781,41.7165991
Aldi,9310 Irving Park Road,41.9549783,-87.8598816,n2853917427,-87.8598816,41.9549783
Aldi,2000 South Harlem Avenue,41.8537951,-87.8049991,n4203603992,-87.8049991,41.8537951
ALDI,NA NA,41.6735707,-87.7206523,n4677198610,-87.7206523,41.6735707
ALDI,4703 North Harlem Avenue,41.9654847,-87.8060944,n4929729045,-87.8060944,41.9654847
Aldi Foods,6250 West Touhy Avenue,42.01266284,-87.78268136,w24860790,-87.78268136,42.01266284
Alrasheed Meat Market Grocery,"3255 W 63rd St, Chicago, IL 60629, USA",41.7788229,-87.7052646,ChIJfyv_3dIxDogR1CsY-RXctJk,-87.7052646,41.7788229
Amish Farmers,9711b West Grand Avenue,41.9295946,-87.8681443,n5121033821,-87.8681443,41.9295946
Amish Healthy Foods,"1025 N Western Ave, Chicago, IL 60622, USA",41.9001769,-87.6866604,ChIJzZSmbLLSD4gRRFkEVprVBHA,-87.6866604,41.9001769
Ana's Food Mart Inc,"11545 S Michigan Ave, Chicago, IL 60628, USA",41.6840899,-87.6204401,ChIJWdQDqSckDogR4JvnemDPBkw,-87.6204401,41.6840899
Andersonville Farmers Market,"1500 W Berwyn Ave, Chicago, IL 60640, USA",41.9780083,-87.6683433,ChIJQVLfhojRD4gROv2qQgp52vY,-87.6683433,41.9780083
Andy's Fruit Ranch,"4733 N Kedzie Ave, Chicago, IL 60625, USA",41.9676801,-87.7082859,ChIJhdIyOeXND4gRfHVCrJ8xEcw,-87.7082859,41.9676801
Angelo Caputo's Fresh Markets,42 East Ogden Ave,41.81145711,-87.98655127,w131885148,-87.98655127,41.81145711
Angelo's Foods,NA NA,41.78510134,-88.03687624,w545925103,-88.03687624,41.78510134
Apple Bite Mart,2919 North Broadway,41.9356614,-87.6440876,n2359667302,-87.6440876,41.9356614
Armitage Produce,3330 West Armitage Avenue,41.91764199,-87.71149337,w163885262,-87.71149337,41.91764199
Ashland Market,"1053 N Ashland Ave, Chicago, IL 60622, USA",41.9012891,-87.6672306,ChIJb5o68dHSD4gRyU32A7xofKQ,-87.6672306,41.9012891
Atela Food Market Inc,"747 E 89th St, Chicago, IL 60619, USA",41.7328772,-87.6050373,ChIJozqgThwmDogRqp3V2ijTolk,-87.6050373,41.7328772
Austin Grocery Market,"5649 W Chicago Ave, Chicago, IL 60651, USA",41.894584,-87.767458,ChIJC4imb1IzDogRUSGvfqWuIAQ,-87.767458,41.894584
Avenue Food Mart,"6850 W Belmont Ave, Chicago, IL 60634, USA",41.9385687,-87.7975227,ChIJJ7plngrLD4gRBlMSMqHo_vQ,-87.7975227,41.9385687
Avenue Grocery,"326 N Central Ave, Chicago, IL 60644, USA",41.886547,-87.765555,ChIJW_GtPkUzDogR0GF6LTH3zqw,-87.765555,41.886547
Avenue Grocery Mart,"4948 W Chicago Ave, Chicago, IL 60651, USA",41.8951145,-87.7501996,ChIJ5wXLoDMzDogRtCz90I88MBw,-87.7501996,41.8951145
"Azteca Mini Market, Inc.","3649 E 106th St, Chicago, IL, Chicago, IL 60617, USA",41.7025295,-87.5345968,ChIJ-_WSJ3rYEYgRNIV3SakjvOw,-87.5345968,41.7025295
Azure Meat Market & Grocery,"2547 W Lawrence Ave # B, Chicago, IL 60625, USA",41.9682324,-87.6933129,ChIJd-5liAbSD4gRWy8i6iN1mP8,-87.6933129,41.9682324
B & H Grocery,"713 S Albany Ave, Chicago, IL 60612, USA",41.8723328,-87.7032896,ChIJb-z0W5kyDogR9nriM5fkOuw,-87.7032896,41.8723328
B & J Supermarket,"Chicago, IL 60628, USA",41.6864807,-87.6285099,ChIJq6qqqjokDogR3vtzyf5qW80,-87.6285099,41.6864807
B & K Food Market,"4058 W Belmont Ave, Chicago, IL 60641, USA",41.9391667,-87.7295033,ChIJyxyVVKjND4gRllT5NuLEUNk,-87.7295033,41.9391667
B&Y Groceries,"7041 S Wentworth Ave, Chicago, IL 60621, USA",41.7659707,-87.6296438,ChIJ_VuntTovDogRqeJjOHryOx8,-87.6296438,41.7659707
Bangie's Supermarket,"3801 S Kedzie Ave, Chicago, IL 60632, USA",41.824295,-87.704142,ChIJPRYFTwQyDogRo-6TqYcaOwo,-87.704142,41.824295
Bayan Grocery Inc,"3134 N Narragansett Ave, Chicago, IL 60634, USA",41.9375911,-87.7861544,ChIJCwdUAnjLD4gR8lKsRNEaUSw,-87.7861544,41.9375911
Baylor Melon Market,"10100 S Halsted St, Chicago, IL 60628, USA",41.7103704,-87.6432154,ChIJjwjYXbklDogRsmkV7wR0ang,-87.6432154,41.7103704
Bensidoun USA Inc,"405 N Wabash Ave, Chicago, IL 60611, USA",41.8898017,-87.626024,ChIJaTaGea4sDogRWM0_tDFZEUI,-87.626024,41.8898017
Berkeley Finer Foods,NA NA,41.88874619,-87.90519519,w327452743,-87.90519519,41.88874619
Best Choice Oriental Grocery,"2403 S Wentworth Ave, Chicago, IL 60616, USA",41.8489913,-87.6317918,ChIJG6a0RGQsDogRoO9wfG_v8pk,-87.6317918,41.8489913
Beverly Farmers Market,"1827 95th St, Chicago, IL 60643, USA",41.7208623,-87.6688801,ChIJ8y5ak20lDogRIFWtfMuU8ao,-87.6688801,41.7208623
Big Apple Finer Foods,"2345 N Clark St, Chicago, IL 60614, USA",41.9249399,-87.6399393,ChIJW6H4mxLTD4gR7WlhXgw5hfg,-87.6399393,41.9249399
BIG CITY MARKET,"5616 S Western Ave, Chicago, IL 60636, USA",41.7918119,-87.6840576,ChIJ5X1bizsuDogRd9k2JTCgyp0,-87.6840576,41.7918119
Big Lots,480 Georgetown Square,41.964621,-87.9968383,n5192231369,-87.9968383,41.964621
Big Sam's Mini Mart,"133 E 75th St, Chicago, IL 60619, USA",41.7579881,-87.6202384,ChIJiyQRATUvDogRYtdHeVg0oEo,-87.6202384,41.7579881
BJ's Market & Bakery,"1156 W 79th St, Chicago, IL 60620, USA",41.7507356,-87.6535606,ChIJ7f6CtnYvDogRBLqbObixH0Q,-87.6535606,41.7507356
Bob's Liquors & Grocery,"5069 W Madison St, Chicago, IL 60644, USA",41.880066,-87.752719,ChIJkc-wYT4zDogRGC_KQNcru54,-87.752719,41.880066
Bockwinkel's,"320 E Ohio St, Chicago, IL 60611, USA",41.8927663,-87.6194187,ChIJkdgCiaosDogRt8mcWCczySI,-87.6194187,41.8927663
Bockwinkel's at Harbor Point,"155 N Harbor Dr, Chicago, IL 60601, USA",41.8849151,-87.6146663,ChIJcThJ1lkrDogR3wHfM9v4T_U,-87.6146663,41.8849151
Bonne Sante Health Foods,1512 East 53rd Street,41.7997068,-87.5884495,n1888622842,-87.5884495,41.7997068
Boricua Market,"3334 W Armitage Ave, Chicago, IL 60647, USA",41.9176422,-87.7115616,ChIJ_caJ7mnND4gRwl2xvEAq9kw,-87.7115616,41.9176422
Boxville,"332 E 51st St, Chicago, IL 60615, USA",41.8021215,-87.6182115,ChIJ6e_XxkwpDogRTdFq_Vsa6hU,-87.6182115,41.8021215
Breakthrough Fresh Market,"3334 W Carroll Ave, Chicago, IL 60624, USA",41.88778,-87.710066,ChIJA7YaibAyDogRqT00jEn2eDw,-87.710066,41.88778
Broadway Supermarket,4879 North Broadway,41.9711524,-87.6590455,n2626227786,-87.6590455,41.9711524
Bronzeville Community Market,"S King Dr & E 47th St, Chicago, IL 60653, USA",41.8093797,-87.6168571,ChIJB49JbVMpDogROzZ8LK3I1pc,-87.6168571,41.8093797
Bronzeville Community Market,"S King Dr & E 26th St, Chicago, IL 60616, USA",41.8457168,-87.6176452,ChIJJYC25ocrDogRQNf7gq-CDMM,-87.6176452,41.8457168
Brookhaven Marketplace,NA NA,41.7495325,-87.97533378,w306673031,-87.97533378,41.7495325
Brown Fresh Fish Market,"139 W 118th St, Chicago, IL 60628, USA",41.6795339,-87.62675,ChIJ-T6UGiMkDogR42BZEjM4Loo,-87.62675,41.6795339
Bryn Mawr Fresh Market,"3318 W Bryn Mawr Ave, Chicago, IL 60659, USA",41.9831471,-87.71211,ChIJ9RYVgw7OD4gRWpRrxC0w0Zg,-87.71211,41.9831471
Butcher & Larder,NA NA,41.9004048,-87.6621198,n3652936566,-87.6621198,41.9004048
Butera,4761 North Nagle Avenue,41.96765981,-87.78724646,w206920779,-87.78724646,41.96765981
Butera,NA NA,41.9600903,-87.8344006,n2270551531,-87.8344006,41.9600903
Cadillac 4 In 1 Food Market,"6901 S Wentworth Ave, Chicago, IL 60621, USA",41.7689502,-87.6297354,ChIJ0ZipmCUvDogR_wjyQfU3C7o,-87.6297354,41.7689502
Candy's Grocery,"1366 W Ohio St, Chicago, IL 60642, USA",41.8926032,-87.6621605,ChIJv_4rlystDogRQkIWAAO0bvo,-87.6621605,41.8926032
Caputo's Finer Foods,2400 North Harlem Avenue,41.92472777,-87.8069189,w376995334,-87.8069189,41.92472777
Carniceria Guanajuato,"5250 W Fullerton Ave, Chicago, IL 60639, USA",41.9243039,-87.7583048,ChIJ2e10OZPMD4gRUhKX-1yYuEk,-87.7583048,41.9243039
Carniceria Guanajuato,3140 North California Avenue,41.9387842,-87.6980674,n392722752,-87.6980674,41.9387842
Carniceria Jimenez,3834-3850 West Fullerton Avenue,41.92482879,-87.72353692,w163897191,-87.72353692,41.92482879
Carniceria La Gloria,"2551 W 51st St, Chicago, IL 60632, USA",41.8008082,-87.6887264,ChIJzXnHwRkuDogRtahvUpibiQY,-87.6887264,41.8008082
Carniceria La Hacienda,"3629 W 63rd St, Chicago, IL 60629, USA",41.7785329,-87.714184,ChIJzdE0P8sxDogRpernqvYiXTw,-87.714184,41.7785329
Carniceria los cuates,"4531 W 67th St, Chicago, IL 60629, USA",41.7710449,-87.7361552,ChIJG67QM1YwDogRiOdykpyfeqA,-87.7361552,41.7710449
Carniceria Ricardo,4419-4423 West Diversey Avenue,41.93138844,-87.73789651,w162437789,-87.73789651,41.93138844
Carniceria Ruiz,3001 North Kedzie Avenue,41.9358449,-87.70727419,w163894573,-87.70727419,41.9358449
Carniceria y taqueria tierra caliente,"3312 W North Ave, Chicago, IL 60647, USA",41.9104001,-87.7098722,ChIJFXBp9kTND4gRdRsQdhA08h4,-87.7098722,41.9104001
Carnicerias Guanajuato,"1436 N Ashland Ave, Chicago, IL 60622, USA",41.9081507,-87.6679754,ChIJF1dc09rSD4gRB_vmpK9mw5g,-87.6679754,41.9081507
Carnicerias Jimenez,"4204 W North Ave, Chicago, IL 60639, USA",41.9099647,-87.7315736,ChIJT2HcKSTND4gRrYuuzX0Nsk0,-87.7315736,41.9099647
Carnicerias Jimenez,"5330 W Belmont Ave, Chicago, IL 60641, USA",41.9387472,-87.7601706,ChIJOR2quGHMD4gRxDNvNnONhPk,-87.7601706,41.9387472
Carnicerias Jimenez Fresh Market,NA NA,41.8939388,-87.8563095,n4207764085,-87.8563095,41.8939388
Carnival Foods,"458 W Dickens Ave, Chicago, IL 60614, USA",41.9202058,-87.6408068,ChIJb45xgBTTD4gRkGTMe2i17Pw,-87.6408068,41.9202058
Carnival Grocery,NA South Oak Park Avenue,41.8733355,-87.7937851,n4630603989,-87.7937851,41.8733355
Celina's Fresh Market,14164 McCarthy Road,41.6642646,-87.9655026,n4745966050,-87.9655026,41.6642646
Central Park Fruit Market,"3604 W Grand Ave, Chicago, IL 60651, USA",41.9025183,-87.7167819,ChIJcaod-knND4gRNcCSFLwrvpg,-87.7167819,41.9025183
Cermak Fresh Market,"3033 S Halsted St, Chicago, IL 60608, USA",41.8389,-87.645949,ChIJzTPCUEYsDogR2kHIThhUOec,-87.645949,41.8389
Cermak Fresh Market,"3435 S Archer Ave, Chicago, IL 60608, USA",41.8309609,-87.6761154,ChIJ2fu7KMItDogRBBIZmoPiy-M,-87.6761154,41.8309609
Cermak Fresh Market,"1711 W Cermak Rd, Chicago, IL 60608, USA",41.851681,-87.669281,ChIJuTbSbKYtDogRstVOihWTzOY,-87.669281,41.851681
Cermak Fresh Market,"3311 W 26th St, Chicago, IL 60623, USA",41.8438479,-87.7082707,ChIJ-1S0O24yDogRvCqjjCxZX50,-87.7082707,41.8438479
Cermak Fresh Market,"7220 S Cicero Ave, Chicago, IL 60629, USA",41.761436,-87.742814,ChIJNaabmfMwDogRDn2kD9Kqb9o,-87.742814,41.761436
Cermak Fresh Market,"4000 W Diversey Ave, Chicago, IL 60639, USA",41.9319922,-87.7277562,ChIJBacFCAbND4gR3XBBmmg8Yww,-87.7277562,41.9319922
Cermak Fresh Market,"4234 N Kedzie Ave, Chicago, IL 60618, USA",41.958463,-87.70851,ChIJ-3eObO3ND4gR-hzcHdy4U0Q,-87.70851,41.958463
Cermak Fresh Market,"6623 N Damen Ave, Chicago, IL 60645, USA",42.0024119,-87.6796016,ChIJVZ-dBcfRD4gRx9OtyXzwU70,-87.6796016,42.0024119
Cermak Grocery,"4156 W Cermak Rd, Chicago, IL 60623, USA",41.8517004,-87.7294857,ChIJD7jN2FAyDogRJsxukspUd3k,-87.7294857,41.8517004
Cermak Produce,"5220 S Pulaski Rd, Chicago, IL 60632, USA",41.7977815,-87.7245072,ChIJUXzIKpYxDogRoP2_kUUsRqw,-87.7245072,41.7977815
Cermak Produce,"2701 W North Ave, Chicago, IL 60647, USA",41.90995,-87.694909,ChIJb2vH46bSD4gRk6mFlQEW_x4,-87.694909,41.90995
Cermak Produce,"4401 W Armitage Ave, Chicago, IL 60639, USA",41.9167908,-87.7366301,ChIJVZVP-t_MD4gRyqTP6Aor4PI,-87.7366301,41.9167908
Cermak Produce Inc,"2820 N Cicero Ave, Chicago, IL 60641, USA",41.9320699,-87.7471532,ChIJ2RvkqfDMD4gRVMWNusRfacE,-87.7471532,41.9320699
Certified Grocery Basket,"351 E 103rd St, Chicago, IL 60628, USA",41.7071906,-87.6142074,ChIJtztZSHcmDogRvw0eKqxoOng,-87.6142074,41.7071906
Chatham Foods,"327 E 79th St, Chicago, IL 60619, USA",41.7509642,-87.6168502,ChIJN8wUnbQoDogRbEW_cR-9UOY,-87.6168502,41.7509642
Chicago Food Market,"2245 S Wentworth Ave, Chicago, IL 60616, USA",41.8515769,-87.631808,ChIJw9BlkWMsDogRn8-PXIDnCHM,-87.631808,41.8515769
Chicago French Market,131 North Clinton Street,41.8837923,-87.6406508,n2968230652,-87.6406508,41.8837923
Chicago International Produce Market,"2404 S Wolcott Ave, Chicago, IL 60608, USA",41.8466649,-87.6730936,ChIJNfcOjKQtDogREKETYA1IAdQ,-87.6730936,41.8466649
Chinatown Market,2121 South Archer Avenue,41.85361163,-87.63238946,w210537821,-87.63238946,41.85361163
City Fresh Market,"131 N Clinton St, Chicago, IL 60661, USA",41.8840575,-87.6411194,ChIJD-dqScYsDogRnD43f5MI6GM,-87.6411194,41.8840575
Columbus Park Community Market,"S Central Ave & W Congress Pkwy, Chicago, IL 60644, USA",41.8738166,-87.7646168,ChIJcTqw2mgzDogRwi56297ilQw,-87.7646168,41.8738166
Commercial Fish Market,"8913 S Commercial Ave, Chicago, IL 60617, USA",41.7332136,-87.5510113,ChIJqfR27eInDogRul4XgGm0OCk,-87.5510113,41.7332136
Commercial Groceries,"3004 E 100th St, Chicago, IL 60617, USA",41.7135579,-87.5505565,ChIJuza26pInDogRURFgNU1f3Dg,-87.5505565,41.7135579
Community Grocery,"3338 W Bryn Mawr Ave # 4, Chicago, IL 60659, USA",41.9832001,-87.7128251,ChIJIZJYLgzOD4gR1E7dK2V-NlQ,-87.7128251,41.9832001
Conte Di Savoia,"2227 W Taylor St, Chicago, IL 60612, USA",41.8689214,-87.6822848,ChIJ9SpQ0m0tDogRJ-zUBE-5_V0,-87.6822848,41.8689214
Conte Di Savoia,"1438 W Taylor St, Chicago, IL 60607, USA",41.8694096,-87.663243,ChIJt_bkiBstDogRAqE4YyMxdzs,-87.663243,41.8694096
Cost Plus World Market,"1623 N Sheffield Ave, Chicago, IL 60614, USA",41.9115154,-87.6527157,ChIJoyQW4iPTD4gRUjiiiVBwHzw,-87.6527157,41.9115154
Costco,7311 North Melvina Avenue,42.01507946,-87.78081169,w24860748,-87.78081169,42.01507946
Costco,2746 North Clybourn Avenue,41.92927339,-87.67744448,w31134658,-87.67744448,41.92927339
Costco,8400 West North Avenue,41.9092327,-87.83697407,w226321902,-87.83697407,41.9092327
COSTCO S CICERO,"7300 S Cicero Ave, Chicago, IL 60629, USA",41.759023,-87.744844,ChIJ0c5c0PIwDogR_V7QIPCrwLs,-87.744844,41.759023
Costco Wholesale,1901 West 22nd Street,41.84556891,-87.96607583,w60693804,-87.96607583,41.84556891
County Fair Foods,"10800 S Western Ave, Chicago, IL 60643, USA",41.6968218,-87.68167,ChIJt2QCXt8kDogR5VfGe2rYp-w,-87.68167,41.6968218
Cremeria La Ordena,"5958 S Pulaski Rd, Chicago, IL 60629, USA",41.7842346,-87.7232095,ChIJ6yXLOLExDogROz0sCEkExrQ,-87.7232095,41.7842346
D & Y Grocery Store,"8200 S Cottage Grove Ave, Chicago, IL 60619, USA",41.7456912,-87.6052987,ChIJp6LszKQoDogRMPdXGt0sK4c,-87.6052987,41.7456912
Daallo Meat & Grocery,"2742 W Devon Ave, Chicago, IL 60659, USA",41.9976594,-87.6989265,ChIJRbdJXSDOD4gRhiCXGy5g2lg,-87.6989265,41.9976594
Daniel's Grocery,"3101 W Irving Park Rd, Chicago, IL 60618, USA",41.9535396,-87.7057729,ChIJC-5hp43ND4gRWYkr2I5Mvnk,-87.7057729,41.9535396
Danny's Buy Low,"2220 N Western Ave, Chicago, IL 60647, USA",41.9223731,-87.6877812,ChIJETRxoJDSD4gR1f5CL48VH04,-87.6877812,41.9223731
Dearborn Wholesale Grocers,1841 West 79th Street,41.7500231,-87.66981483,w209633443,-87.66981483,41.7500231
Del Rancho Market Inc,"6816 W Grand Ave, Chicago, IL 60707, USA",41.9237811,-87.7959691,ChIJAXskUhPLD4gRDK-rQSjmdDE,-87.7959691,41.9237811
Devon Market,"1440 W Devon Ave, Chicago, IL 60660, USA",41.9983251,-87.6670834,ChIJ744yI6PRD4gRFQGefPs6uoQ,-87.6670834,41.9983251
Diala Grocery & Liquor,"1935 W Foster Ave, Chicago, IL 60640, USA",41.9757561,-87.6776452,ChIJqXGdq4rRD4gRXrgWSQKAuKI,-87.6776452,41.9757561
Dill Pickle Food Co-Op,3039 West Fullerton Avenue,41.9245547,-87.703911,n1262347259,-87.703911,41.9245547
Division Street Farmer's Market,"&, W Division St & N Dearborn Pkwy, Chicago, IL 60610, USA",41.9039153,-87.6299915,ChIJJ1oXvk_TD4gRbCjdcTQ0JmY,-87.6299915,41.9039153
Dollar Bargain & Grocery,"4041 W North Ave, Chicago, IL 60639, USA",41.9095502,-87.7281483,ChIJv4bAICXND4gRT2s4w3gyFQY,-87.7281483,41.9095502
Dollar General,"1425 E 71st St, Chicago, IL 60619, USA",41.7657343,-87.5897975,ChIJZcOtW-UoDogRkosTu7bNDu8,-87.5897975,41.7657343
Dollar General,"8341 S Cottage Grove Ave, Chicago, IL 60619, USA",41.74292,-87.6046037,ChIJr26AY6QoDogRRmHR7Yp6bes,-87.6046037,41.74292
Dollar General,"9520 S Jeffery Ave, Chicago, IL 60617, USA",41.7215825,-87.575669,ChIJ8x-XQcwnDogRosoNLbc6qts,-87.575669,41.7215825
Dollar General,"8201 S Racine Ave, Chicago, IL 60620, USA",41.744769,-87.6532647,ChIJHauRh3kvDogRyJtbEhyjn68,-87.6532647,41.744769
Dollar General,"316 W 103rd St, Chicago, IL 60628, USA",41.7073166,-87.6316613,ChIJidTqkMUlDogRAnFyC761mkU,-87.6316613,41.7073166
Dollar General,NA NA,41.9647314,-87.9952008,n5192231381,-87.9952008,41.9647314
Dollar Tree,NA NA,41.8798442,-87.7979261,n4993727822,-87.7979261,41.8798442
Dona Maris Carniceria y Fruteria,NA NA,41.9244028,-87.7217288,n1780030550,-87.7217288,41.9244028
Drive Thru Food Market,"11132 S Halsted St, Chicago, IL 60628, USA",41.6913375,-87.6428114,ChIJFRsKXEkkDogR9I7hX7lfC0g,-87.6428114,41.6913375
Dukan International Food Market,"4638-4642 N Kedzie Ave, Chicago, IL 60625, USA",41.9659413,-87.7088628,ChIJowFzjO_ND4gRTh7vZ7_fmTE,-87.7088628,41.9659413
Eataly Chicago,"43 E Ohio St, Chicago, IL 60611, USA",41.892372,-87.626263,ChIJDYxXqq0sDogRmOHy0xslWYw,-87.626263,41.892372
Eddie & Son Grocery & Liquor,"3624 W North Ave, Chicago, IL 60647, USA",41.9101576,-87.7176012,ChIJq41cmzjND4gRTuKv-T0p5ZM,-87.7176012,41.9101576
Edgewater Farmers Market,"5917 N Broadway St, Chicago, IL 60660, USA",41.9891162,-87.6597001,ChIJtYaXWZ7RD4gRhOi3mZQpLTQ,-87.6597001,41.9891162
Edgewater Produce,5509 North Clark Street,41.98213151,-87.66820079,w209946763,-87.66820079,41.98213151
Ed's Food Mart,"11809 S Michigan Ave, Chicago, IL 60628, USA",41.679518,-87.6202821,ChIJH2gJ7iAkDogR-Fp8iwYQv-Q,-87.6202821,41.679518
Ed's Way,946 Beloit Avenue,41.868747,-87.8113174,n3358857188,-87.8113174,41.868747
El Barrio Grocery Store,"3938 W North Ave, Chicago, IL 60647, USA",41.9100346,-87.7255153,ChIJg9KtGzvND4gRmI0vmLtg8IA,-87.7255153,41.9100346
El Castillo Meat Market,"3704 W 55th St, Chicago, IL 60632, USA",41.793601,-87.7161678,ChIJj5rnuMAxDogRiX2DM-9v-kQ,-87.7161678,41.793601
El Cubano Supermarket,"4939 S Ashland Ave, Chicago, IL 60609, USA",41.8038079,-87.664445,ChIJQTjSW2QuDogRKPZ8l_VEX4U,-87.664445,41.8038079
El Guero Supermercado,"9029 S Commercial Ave, Chicago, IL 60617, USA",41.731016,-87.55087,ChIJc2IlE-MnDogRRGcitpGlJKQ,-87.55087,41.731016
El Ranchito Food,"8327 S Pulaski Rd, Chicago, IL 60652, USA",41.7414201,-87.721105,ChIJr6ZOJXQwDogR_n3H_qe2oC4,-87.721105,41.7414201
El Ranchito Market Carniceria y Fruteria,"3900 W 71st St, Chicago, IL 60629, USA",41.764376,-87.7201876,ChIJQS9iwkYwDogRywnHNFQ-MC4,-87.7201876,41.764376
El Rey Seafood,"4315 S Tripp Ave, Chicago, IL 60632, USA",41.8139736,-87.7298765,ChIJexkjYIYxDogR0xrwXQIKMWE,-87.7298765,41.8139736
El Supermercado Martinez,"4301 S Archer Ave, Chicago, IL 60632, USA",41.8152791,-87.7019507,ChIJg3igL_8xDogR4wQMf2wtHe0,-87.7019507,41.8152791
El-Jeeb Grocery & Meats,"4805 N Pulaski Rd, Chicago, IL 60630, USA",41.9685738,-87.7278977,ChIJJf2aZdDND4gRWtYFkfhdcbo,-87.7278977,41.9685738
Elston Grocery,"4346 N Elston Ave, Chicago, IL 60641, USA",41.9596983,-87.7281107,ChIJLWPMjcjND4gRak0WEp5uhlU,-87.7281107,41.9596983
Eric's Food Center,"13209 S Baltimore Ave, Chicago, IL 60633, USA",41.6551536,-87.546732,ChIJj1t41lInDogRYX8hGsBuWDk,-87.546732,41.6551536
European American Grocery & Meat,"5356 N Lincoln Ave, Chicago, IL 60625, USA",41.9792983,-87.6929172,ChIJFblny_7RD4gRoOcUUFKv-aU,-87.6929172,41.9792983
Evelyn's Food Market,"Chicago, IL 60641, USA",41.934422,-87.7271963,ChIJpejKKgbND4gRB45GeOrYQjY,-87.7271963,41.934422
Express Mart,"11058 S Wentworth Ave, Chicago, IL 60628, USA",41.6927353,-87.6283076,ChIJw6Eeji0kDogRqIecdQmrXRc,-87.6283076,41.6927353
Fahlstrom's Fresh Fish Market,"1258 W Belmont Ave, Chicago, IL 60657, USA",41.9400873,-87.6611781,ChIJx46JelTSD4gREhuVgykxHwQ,-87.6611781,41.9400873
Fair Share,"6422 W 63rd St, Chicago, IL 60638, USA",41.7783309,-87.7821703,ChIJsY_9xyk3DogReeAFYrpvNak,-87.7821703,41.7783309
Fairplay,"4640 S Halsted St, Chicago, IL 60609, USA",41.8100115,-87.647263,ChIJcbTYoZsuDogRAXIZFQUFLWo,-87.647263,41.8100115
Fairplay,NA NA,41.6908948,-87.7853905,n2300453601,-87.7853905,41.6908948
Fairplay Finer Foods,"2323 W 111th St, Chicago, IL 60643, USA",41.6915595,-87.6803853,ChIJX1AWM9wkDogRszzX62oSxoM,-87.6803853,41.6915595
Fairplay Foods,"2200 S Western Ave, Chicago, IL 60608, USA",41.8514976,-87.6869908,ChIJBWF1hJwtDogR59sHaFbOSB4,-87.6869908,41.8514976
Fairplay Foods,8700 South Cicero Avenue,41.73400176,-87.74359083,w131642845,-87.74359083,41.73400176
Family Dollar,"100 95th St, Chicago, IL 60628, USA",41.7219936,-87.6267362,ChIJr8pS0uUlDogRA--RWlthoZY,-87.6267362,41.7219936
Family Dollar,"2159 E 71st St, Chicago, IL 60649, USA",41.7660381,-87.5716159,ChIJJ6lFYFAoDogRiGq1HnXPKxw,-87.5716159,41.7660381
Family Dollar,"6611 S Halsted St, Chicago, IL 60621, USA",41.7739901,-87.6436608,ChIJb6JCtR0vDogRLdt537my2rc,-87.6436608,41.7739901
Family Dollar,"4425 S Cottage Grove Ave, Chicago, IL 60653, USA",41.8141147,-87.606314,ChIJsz62VlgpDogRLXrno-UL4Vo,-87.606314,41.8141147
Family Dollar,"1312 E 79th St, Chicago, IL 60619, USA",41.7515425,-87.5924378,ChIJX-Js6pMoDogREqO0GB-ZkCY,-87.5924378,41.7515425
Family Dollar,"501 E 79th St, Chicago, IL 60619, USA",41.7514355,-87.6120445,ChIJ4ThWYaQoDogRdCicFZFwfDM,-87.6120445,41.7514355
Family Dollar,"51 E 71st St, Chicago, IL 60619, USA",41.76529,-87.622704,ChIJ08N_BTIvDogR3jFldYRc2E0,-87.622704,41.76529
Family Dollar,"8035 S Halsted St, Chicago, IL 60620, USA",41.7478521,-87.6441607,ChIJ-3T5N28vDogRZKTG-Vpr-D8,-87.6441607,41.7478521
Family Dollar,"6349 S Cottage Grove Ave, Chicago, IL 60637, USA",41.7791594,-87.6054718,ChIJJ5x98SYpDogRvhCwYYqIRIM,-87.6054718,41.7791594
Family Dollar,"1200 W 87th St, Chicago, IL 60620, USA",41.7360752,-87.653587,ChIJ7ZZbpIAlDogRuim5-KyH-mU,-87.653587,41.7360752
Family Dollar,"66 E 103rd St Ste 90, Chicago, IL 60628, USA",41.7077467,-87.6204845,ChIJMd90N9glDogRw3mtybXJ-lY,-87.6204845,41.7077467
Family Dollar,"6414 S Western Ave, Chicago, IL 60636, USA",41.7773154,-87.6838585,ChIJg7xFcjMuDogR5ae02JDC60M,-87.6838585,41.7773154
Family Dollar,"811 W 103rd St, Chicago, IL 60643, USA",41.7066463,-87.6434189,ChIJwdSIqrAlDogRqTk9jSwiR5g,-87.6434189,41.7066463
Family Dollar,"5401 S Wentworth Ave, Chicago, IL 60609, USA",41.7967253,-87.629281,ChIJR8Za5ccuDogR6Y4P-xCr-IQ,-87.629281,41.7967253
Family Dollar,"829 W 119th St, Chicago, IL 60643, USA",41.6771506,-87.6433799,ChIJG_cs6kEkDogRPLsr1JmctZg,-87.6433799,41.6771506
Family Dollar,"364 E 87th St, Chicago, IL 60619, USA",41.7367392,-87.6153064,ChIJw9cLcqooDogRr2uYWIyscP0,-87.6153064,41.7367392
Family Dollar,"9101 S Commercial Ave, Chicago, IL 60617, USA",41.7299036,-87.5509269,ChIJbyy5Y-MnDogRo5uz10imVtw,-87.5509269,41.7299036
Family Dollar,"7340 S Ashland Ave, Chicago, IL 60636, USA",41.7598462,-87.6640237,ChIJk5YPz6MvDogR5UTNXKilxy0,-87.6640237,41.7598462
Family Dollar,"2660 E 79th St, Chicago, IL 60649, USA",41.7521793,-87.5589366,ChIJ8fM80RQoDogR6Qw0rWIxiQY,-87.5589366,41.7521793
Family Dollar,"1615 W 59th St, Chicago, IL 60636, USA",41.7864715,-87.6651856,ChIJB3FLglAuDogRMbMECvWPmm0,-87.6651856,41.7864715
Family Dollar,"1221 95th St, Chicago, IL 60643, USA",41.721005,-87.6540082,ChIJY44To54lDogRgC2wj0pCcqo,-87.6540082,41.721005
Family Dollar,"2610 W 71st St, Chicago, IL 60629, USA",41.7647186,-87.6886104,ChIJ9UyF2NovDogRfwE5mLmUtt4,-87.6886104,41.7647186
Family Dollar,"7927 S Ashland Ave, Chicago, IL 60620, USA",41.7495214,-87.6630439,ChIJtUVpgZsvDogRXYPryAxMtVQ,-87.6630439,41.7495214
Family Dollar,"8915 S Stony Island Ave, Chicago, IL 60617, USA",41.732995,-87.5847412,ChIJoXJSnSkmDogRYlx8cd1KbmU,-87.5847412,41.732995
Family Dollar,"11438 S Michigan Ave, Chicago, IL 60628, USA",41.6856186,-87.6212345,ChIJH5DG0yckDogRLS6ZVFh5C64,-87.6212345,41.6856186
Family Dollar,"3120 W 63rd St, Chicago, IL 60629, USA",41.7792929,-87.7017244,ChIJ5aTXkNQxDogRscgMYTyIiVk,-87.7017244,41.7792929
Family Dollar,"11041 S Kedzie Ave, Chicago, IL 60655, USA",41.6922174,-87.7005118,ChIJqwbAbyw7DogRdaI0nhiA-Yw,-87.7005118,41.6922174
Family Dollar,"8320 S Pulaski Rd, Chicago, IL 60652, USA",41.7415496,-87.722013,ChIJlRcJJHQwDogRSaWkq6jsju4,-87.722013,41.7415496
Family Dollar,"4646 S Halsted St, Chicago, IL 60609, USA",41.8098099,-87.6472571,ChIJzVO9RoQEDogRjH4BueYXB-o,-87.6472571,41.8098099
Family Dollar,"2420 W 51st St, Chicago, IL 60632, USA",41.8012393,-87.6851146,ChIJyR-P2BYuDogRllnr5D_lVR0,-87.6851146,41.8012393
Family Dollar,"7000 S Pulaski Rd Suite B, Chicago, IL 60629, USA",41.7654498,-87.7234526,ChIJwyQ6V0QwDogR0QjIicxYQiU,-87.7234526,41.7654498
Family Dollar,"120 W 79th St, Chicago, IL 60620, USA",41.7508833,-87.6275442,ChIJ2y7lS08vDogRFb8zyWHawgw,-87.6275442,41.7508833
Family Dollar,"6800 S Ashland Ave, Chicago, IL 60636, USA",41.770249,-87.664286,ChIJ4Zj_6a4vDogRyVIw1YqN-b4,-87.664286,41.770249
Family Dollar,"11810 S Western Ave, Chicago, IL 60643, USA",41.678503,-87.6811211,ChIJAWWC7cAkDogRqIbhj6gH8eQ,-87.6811211,41.678503
Family Dollar,"1700 W 18th St, Chicago, IL 60608, USA",41.8579622,-87.6689523,ChIJL2_AawgtDogR5R_mzwxZg88,-87.6689523,41.8579622
Family Dollar,"1533 W Chicago Ave #37, Chicago, IL 60642, USA",41.8959529,-87.6661828,ChIJhfIqMy0tDogRhK4OiGHk0n4,-87.6661828,41.8959529
Family Dollar,"3431 S Halsted St, Chicago, IL 60608, USA",41.83165,-87.645775,ChIJSdoHeDksDogRN4FVDfbozuk,-87.645775,41.83165
Family Dollar,"4247 W Madison St, Chicago, IL 60624, USA",41.880319,-87.732356,ChIJZz-djd4yDogR8Gq93PUjHJY,-87.732356,41.880319
Family Dollar,"413 S Kedzie Ave, Chicago, IL 60612, USA",41.875429,-87.7059776,ChIJVfRzQZgyDogRFBLbEQZTzj4,-87.7059776,41.875429
Family Dollar,"2239 S Pulaski Rd, Chicago, IL 60623, USA",41.8501659,-87.7240772,ChIJbd8YuFsyDogR6yJC65BvRKw,-87.7240772,41.8501659
Family Dollar,"4938 S Kedzie Ave, Chicago, IL 60632, USA",41.8030632,-87.7054741,ChIJnxu2PeQxDogReKNTORrb-7s,-87.7054741,41.8030632
Family Dollar,"3644 W 26th St, Chicago, IL 60623, USA",41.8445786,-87.7163492,ChIJA9_Dz2kyDogRvBU0PsRdDNs,-87.7163492,41.8445786
Family Dollar,"5711 W 63rd St, Chicago, IL 60638, USA",41.7777307,-87.7646647,ChIJgV7maNgwDogRQGXzsFZflXk,-87.7646647,41.7777307
Family Dollar,"6190 S Archer Ave, Chicago, IL 60638, USA",41.7941829,-87.7739889,ChIJQYB7gDQxDogRjWKoD1jnYMU,-87.7739889,41.7941829
Family Dollar,"3401 W Chicago Ave, Chicago, IL 60651, USA",41.89521,-87.71173,ChIJpWB7abMyDogRRGRVYtTqwuw,-87.71173,41.89521
Family Dollar,"2118 W Cermak Rd, Chicago, IL 60608, USA",41.8523088,-87.6793014,ChIJJw43T58tDogRwMXTjMrNbUY,-87.6793014,41.8523088
Family Dollar,"3845 W North Ave, Chicago, IL 60647, USA",41.9097711,-87.723485,ChIJvRi8tjvND4gRpCzdqlTA2ws,-87.723485,41.9097711
Family Dollar,"4200 W Belmont Ave, Chicago, IL 60641, USA",41.9392724,-87.7323257,ChIJbyXvSarND4gR3fmphGJXVGI,-87.7323257,41.9392724
Family Dollar,"3429 W Diversey Ave, Chicago, IL 60647, USA",41.9316963,-87.7136059,ChIJq-p7dXTND4gRsVO7tfntyrg,-87.7136059,41.9316963
Family Dollar,"2274 N Milwaukee Ave, Chicago, IL 60647, USA",41.9222775,-87.6967783,ChIJydH45p3SD4gRiLKFkm6Irrg,-87.6967783,41.9222775
Family Dollar,"4748 W Fullerton Ave, Chicago, IL 60639, USA",41.924639,-87.7454995,ChIJoxz1mOXMD4gRUCIy6NLfsF4,-87.7454995,41.924639
Family Dollar,"2700 W Division St, Chicago, IL 60622, USA",41.9032587,-87.694681,ChIJbTdlEqnSD4gRVG2snGaWvoM,-87.694681,41.9032587
Family Dollar,"5660 W Roosevelt Rd, Chicago, IL 60644, USA",41.8663951,-87.7665198,ChIJ2YfEinAzDogRZCK9R7hLtU0,-87.7665198,41.8663951
Family Dollar,"100 S Laramie Ave, Chicago, IL 60644, USA",41.879141,-87.7553759,ChIJ_b42wT8zDogRH6QvsxMxmNg,-87.7553759,41.879141
Family Dollar,"3217 W North Ave, Chicago, IL 60647, USA",41.9099356,-87.7076952,ChIJaRLGzUTND4gRcli0P8WjBZA,-87.7076952,41.9099356
Family Dollar,"5101 W Division St, Chicago, IL 60651, USA",41.9021819,-87.7534905,ChIJiR0b28vMD4gR_3Ayu9SXyok,-87.7534905,41.9021819
Family Dollar,"3916 W Fullerton Ave, Chicago, IL 60647, USA",41.924649,-87.7249186,ChIJuXYoVBDND4gRxBj76P48Phs,-87.7249186,41.924649
Family Dollar,"5222 W Grand Ave #5226, Chicago, IL 60639, USA",41.9174112,-87.7568523,ChIJqRqL-L_MD4gRDBadyBN4kYQ,-87.7568523,41.9174112
Family Dollar,"4613 N Broadway St, Chicago, IL 60640, USA",41.965854,-87.657525,ChIJ86nfr9LTD4gRY1A8OLraCnI,-87.657525,41.965854
Family Dollar,"3601 W Montrose Ave, Chicago, IL 60618, USA",41.96082,-87.718249,ChIJey0e6ZbND4gRAVqIPgpOd_w,-87.718249,41.96082
Family Dollar,"2845 N Central Ave, Chicago, IL 60634, USA",41.9325961,-87.7659208,ChIJPfmFrYjMD4gR2dgoOu296Hk,-87.7659208,41.9325961
Family Dollar,"3239 W Lawrence Ave, Chicago, IL 60625, USA",41.9682486,-87.7099605,ChIJLV9wqeXND4gRj3Nxhbpfmv8,-87.7099605,41.9682486
Family Dollar,"1425 W Morse Ave, Chicago, IL 60626, USA",42.0075687,-87.6667616,ChIJv9WyNK7RD4gRtIDgyy5kt6Y,-87.6667616,42.0075687
Family Dollar,"6240 N Western Ave, Chicago, IL 60659, USA",41.9951894,-87.6901886,ChIJQewygufRD4gRO9JyR5nGmds,-87.6901886,41.9951894
Family Dollar,"6701 W Belmont Ave, Chicago, IL 60634, USA",41.9380046,-87.794113,ChIJD79Gf3XLD4gRIu9hbdOXKrU,-87.794113,41.9380046
Family Time Grocery & Deli,"5616 W Division St, Chicago, IL 60651, USA",41.9022421,-87.766396,ChIJWVqvCbLMD4gRQeuZXfsBSHs,-87.766396,41.9022421
Farmer's Pride Produce and Market,"2110 N Milwaukee Ave, Chicago, IL 60647, USA",41.919417,-87.692164,ChIJn6w0LpnSD4gRExXzgJg3d0g,-87.692164,41.919417
Farmers' Market: Chicago's Garden Center,"2108, 4110 N Elston Ave, Chicago, IL 60618, USA",41.9553589,-87.7222269,ChIJj-GvSb_ND4gRR2vwE4Zctt8,-87.7222269,41.9553589
Farmers Pride Produce,"756 N Western Ave, Chicago, IL 60612, USA",41.8954574,-87.6871096,ChIJq0XKQ00tDogR6CfSuomuy5c,-87.6871096,41.8954574
Fat Lee Supermarket,"2701 S Wells St, Chicago, IL 60616, USA",41.8438979,-87.6326828,ChIJZx_fOm8sDogROB1zIGrPJ1c,-87.6326828,41.8438979
Fay's Food & Meat Market,"5512 W North Ave, Chicago, IL 60639, USA",41.90954,-87.7635717,ChIJCZahW7rMD4gR5TJEmrP97tE,-87.7635717,41.90954
Federal Plaza Farmer's Market,"W Adams St & S Dearborn St, Chicago, IL 60604, USA",41.8789886,-87.6296342,ChIJhTBhubwsDogRjZSpXIu-Sfg,-87.6296342,41.8789886
Food 4 Less,"112 W 87th St, Chicago, IL 60620, USA",41.7377282,-87.6284471,ChIJ-QnsS1YvDogRG25MS5liUUY,-87.6284471,41.7377282
Food 4 Less,"4620 S Damen Ave, Chicago, IL 60609, USA",41.8095051,-87.6779242,ChIJH8jypXMuDogRBPLF1-XPsTs,-87.6779242,41.8095051
Food 4 Less,"7030 S Ashland Ave, Chicago, IL 60636, USA",41.7654661,-87.6644631,ChIJg2-W7qUvDogRmUUI7lMdsgo,-87.6644631,41.7654661
Food 4 Less,"4821 W North Ave, Chicago, IL 60639, USA",41.9082787,-87.7477233,ChIJGUHgLMXMD4gReJ8s0a_AH24,-87.7477233,41.9082787
Food 4 Less,2400 Main Street,42.0325982,-87.7070999,n2294252569,-87.7070999,42.0325982
Food 4 Less,NA NA,41.7518406,-87.745388,n2300373606,-87.745388,41.7518406
Food 4 Less,3039 South Cicero Avenue,41.8376361,-87.7411931,n4643582989,-87.7411931,41.8376361
Food 4 Less,NA NA,41.6724069,-87.7213351,n4677193742,-87.7213351,41.6724069
Food Town,"935 E 79th St, Chicago, IL 60619, USA",41.7510293,-87.6013219,ChIJofmrh74oDogR1NGVfGd9aUQ,-87.6013219,41.7510293
Food Town,"4401 N Hazel St, Chicago, IL 60640, USA",41.961914,-87.6521627,ChIJj0VRks7TD4gR89xAPkPrclU,-87.6521627,41.961914
Foxtrot Market,"1019 W Lake St, Chicago, IL 60654, USA",41.8853531,-87.6529272,ChIJR7URA9osDogRjNdlomhf4wk,-87.6529272,41.8853531
Foxtrot Market,"114 W Chicago Ave, Chicago, IL 60654, USA",41.8968419,-87.6319066,ChIJsej960zTD4gRDGpJqRP_rAs,-87.6319066,41.8968419
Foxtrot Market,"900 W Armitage Ave, Chicago, IL 60614, USA",41.9182831,-87.6511576,ChIJIQqcAxnTD4gRuLyjj7MRJLQ,-87.6511576,41.9182831
Franks Fresh Market,470 Georgetown Square,41.9647171,-87.995804,n5192231368,-87.995804,41.9647171
Fresh Farms,"2626 W Devon Ave, Chicago, IL 60659, USA",41.9977179,-87.6957634,ChIJWSX-pd_RD4gR3FoPP8gzTJw,-87.6957634,41.9977179
Fresh Food Market,"W 30th St, Chicago, IL 60608, USA",41.839775,-87.6461944,ChIJMVRiZ0YsDogRzuhKwF00zv8,-87.6461944,41.839775
Fresh Foods,NA NA,41.7324878,-87.7790288,n2300379048,-87.7790288,41.7324878
Fresh Market Place,"2600 N Central Ave, Chicago, IL 60639, USA",41.9284589,-87.7662947,ChIJc_0g9o_MD4gRVXQN9R1Plcw,-87.7662947,41.9284589
Fresh Thyme,NA NA,41.8091569,-87.9936403,n4381316281,-87.9936403,41.8091569
"Fresh Thyme Farmers Market- Chicago, IL","2500 N Elston Ave, Chicago, IL 60647, USA",41.9264789,-87.6812303,ChIJCXt_hY3SD4gRY-J8Vf-aHq8,-87.6812303,41.9264789
Fullerton Grocery,"5424 W Fullerton Ave, Chicago, IL 60639, USA",41.9241851,-87.7621604,ChIJxx0ZZpHMD4gROX8_z_Z4xH0,-87.7621604,41.9241851
Garden Gourmet Market,"1130 N Ashland Ave, Chicago, IL 60622, USA",41.9024567,-87.6676623,ChIJXYwm3NHSD4gR4Lg_OciW-Sg,-87.6676623,41.9024567
Genie's Discount Liquor & Grocery,"5249 W Chicago Ave, Chicago, IL 60651, USA",41.894742,-87.7575619,ChIJ1WTwZEozDogRUu476PkuG6M,-87.7575619,41.894742
George's Food & Liquor,"1438 95th St, Chicago, IL 60643, USA",41.7215806,-87.6595035,ChIJLwli53UlDogRSzIkEmNxp-g,-87.6595035,41.7215806
Gepperth's Meat Market,"1964 N Halsted St, Chicago, IL 60614, USA",41.91785,-87.64861,ChIJH2KOLBjTD4gRoJNpLjSOJpc,-87.64861,41.91785
GFS,2424 Oakton Street,42.02594507,-87.70715216,w206675665,-87.70715216,42.02594507
Glenwood Sunday Market,"6962 N Glenwood Ave, Chicago, IL 60626, USA",42.0084496,-87.6663379,ChIJ8wYXs6_RD4gRnf2P25w5KQ0,-87.6663379,42.0084496
Go Grocer,"1255 S Michigan Ave, Chicago, IL 60605, USA",41.8659982,-87.6235928,ChIJ5WFrUJssDogR7gAfCBwvMHA,-87.6235928,41.8659982
Go Grocer,"2060 W North Ave, Chicago, IL 60647, USA",41.9105397,-87.6798455,ChIJTyXx0LjSD4gRKqNJjGDjc24,-87.6798455,41.9105397
Gohyang Food Market,"5731 N Lincoln Ave, Chicago, IL 60659, USA",41.9860282,-87.6996619,ChIJtTEWLR3OD4gRSoMQlIT1DU0,-87.6996619,41.9860282
Golden Pacific Market,5353 North Broadway,41.97968368,-87.65944894,w210391639,-87.65944894,41.97968368
Gong Ming Food Market,"208 W 24th St, Chicago, IL 60616, USA",41.8492905,-87.6323899,ChIJCYyOP2QsDogR5UXNGfwpjxM,-87.6323899,41.8492905
Gordon Food Service,6431 West Fullerton Avenue,41.92330863,-87.78632741,w163047141,-87.78632741,41.92330863
Grand Palace Super Market,"7131 S State St, Chicago, IL 60619, USA",41.7646004,-87.6246577,ChIJkRO9kzEvDogRNNkTIbIaxIY,-87.6246577,41.7646004
Green City Market - Indoor Market,"2430 N Cannon Dr, Chicago, IL 60614, USA",41.9267847,-87.6351847,ChIJc-DtRHLTD4gRtO2OIN_vJKs,-87.6351847,41.9267847
Green City Market Lincoln Park,"1817 N Clark St, Chicago, IL 60614, USA",41.9152912,-87.6335462,ChIJNdAsc2rTD4gRNPHXq3qiQCY,-87.6335462,41.9152912
Green City Market West Loop,"115 S Sangamon St, Chicago, IL 60607, USA",41.879807,-87.650484,ChIJC5dU5s8sDogR-mdSCpfs9_w,-87.650484,41.879807
Green Grocer Chicago,"1402 W Grand Ave, Chicago, IL 60642, USA",41.8911737,-87.6625343,ChIJ1cMQ_SstDogRm6pqjEPnSK4,-87.6625343,41.8911737
Green Star Super Market Groceries,"Chicago, IL 60624, USA",41.8808588,-87.72922,ChIJV4_k89wyDogRTMVGuASCeHI,-87.72922,41.8808588
Green Valley Grocery,"3432 W Irving Park Rd, Chicago, IL 60618, USA",41.9539892,-87.7143318,ChIJTwgj9pTND4gRsfFbq7pgBcw,-87.7143318,41.9539892
Grocery Flores,"5200 S California Ave, Chicago, IL 60632, USA",41.799002,-87.694289,ChIJVy4kGB8uDogRBWVdonONH9k,-87.694289,41.799002
Guzman Grocery,"1900 S Leavitt St, Chicago, IL 60608, USA",41.8556807,-87.680966,ChIJ3ZeTMJ4tDogRkXpCbfqUTYk,-87.680966,41.8556807
H Mart,"711 W Jackson Blvd, Chicago, IL 60661, USA",41.8776034,-87.6446963,ChIJQUB-SMIsDogRLiAoQY4_KzY,-87.6446963,41.8776034
Hagen Fish Market,5635 West Montrose Avenue,41.9602481,-87.7686275,n4675994291,-87.7686275,41.9602481
Hagen's Fish Market,"5635 W Montrose Ave, Chicago, IL 60634, USA",41.9603656,-87.7686408,ChIJG2kKrA3MD4gRzs6HrlyuYZk,-87.7686408,41.9603656
Hana's Finer Foods,"1311 E 87th St, Chicago, IL 60619, USA",41.7364719,-87.5923657,ChIJtaYclp0oDogROSYdUgwkK5k,-87.5923657,41.7364719
Happy Foods,6783 North Northwest Highway,42.0045859,-87.81843195,w163431758,-87.81843195,42.0045859
Happy Foods Inc,"6415 N Central Ave, Chicago, IL 60646, USA",41.9980422,-87.7634042,ChIJKWrsa8fOD4gRzqnt1ZGIZqM,-87.7634042,41.9980422
Harper Foods,"1455 E 57th St, Chicago, IL 60637, USA",41.7913358,-87.5894604,ChIJy3GddBIpDogRdD8kgBmLri4,-87.5894604,41.7913358
Harvestime Foods,"2632 W Lawrence Ave, Chicago, IL 60625, USA",41.9686591,-87.6952369,ChIJ9YAbAQfSD4gRhIv08iDbB18,-87.6952369,41.9686591
Healthy Food Hub,2423 East 75th Street,41.7588646,-87.5654081,n4531565044,-87.5654081,41.7588646
HMart,801 Civic Center Drive,42.02213486,-87.8011767,w201490977,-87.8011767,42.02213486
Holzkopf's Meat Market,6155 North Broadway,41.9938986,-87.6601549,n2029405859,-87.6601549,41.9938986
Horizon Mini Market,"Chicago, IL 60619, USA",41.7267471,-87.6047947,ChIJe-j3ExomDogRW68iDiCHsj4,-87.6047947,41.7267471
Horner Park Farmers Market,"2741 W Montrose Ave, Chicago, IL 60618, USA",41.9610426,-87.6971794,ChIJy3RTB_bND4gRtRJtdajggZ0,-87.6971794,41.9610426
Hungarian Kosher Foods,4020 Oakton Street,42.02659326,-87.72904002,w157279718,-87.72904002,42.02659326
Hyde Park Produce Market,"1226 E 53rd St, Chicago, IL 60615, USA",41.7999353,-87.595523,ChIJTz8W8GspDogRiXFQjgFLe84,-87.595523,41.7999353
Independence Park Farmers Market,"3945 N Springfield Ave, Chicago, IL 60618, USA",41.9534394,-87.7248516,ChIJUaphmbnND4gR6uWGnR80ADs,-87.7248516,41.9534394
Indo Pak Meat & Grocery LLC,"3922 W Lawrence Ave, Chicago, IL 60625, USA",41.9683994,-87.7265143,ChIJpTFomtrND4gRIl97-D8N8jo,-87.7265143,41.9683994
Ingleside Foods,"5117 S Ingleside Ave, Chicago, IL 60615, USA",41.8016927,-87.6025531,ChIJE7y1lEMpDogRQNxNkPOtSi0,-87.6025531,41.8016927
International Zabihah Meat and Grocery,"4348 N Elston Ave, Chicago, IL 60641, USA",41.9596763,-87.7281393,ChIJ6S9MjMjND4gRzs5WKtiLx1o,-87.7281393,41.9596763
Ismael Grocery & Bakery,"3253 W 63rd St, Chicago, IL 60629, USA",41.7788079,-87.7052082,ChIJt2w459IxDogRXjQmnQ-mQMI,-87.7052082,41.7788079
J & J Food & Liquor Inc,"2422 W Marquette Rd, Chicago, IL 60629, USA",41.772086,-87.6845231,ChIJmdT_nM4vDogRbdGCBWko86o,-87.6845231,41.772086
J J Peppers Food Store,"7101 S Kedzie Ave, Chicago, IL 60629, USA",41.7641026,-87.7024514,ChIJDytoISQwDogRlKHDYwpQ67U,-87.7024514,41.7641026
J R Grocery Store,"505 E 134th St, Chicago, IL 60827, USA",41.6516864,-87.6096093,ChIJ22axGFIhDogRbNP-TlFCzTA,-87.6096093,41.6516864
J.D. Mills,635-4 NA,42.0304819,-87.6781309,n1843040171,-87.6781309,42.0304819
J.P. Graziano Grocery,"901 W Randolph St, Chicago, IL 60607, USA",41.8840625,-87.6500299,ChIJvTCU7tosDogROnktq8B92bE,-87.6500299,41.8840625
Jack & Pats Butcher,NA NA,41.6971676,-87.7787547,n2300452100,-87.7787547,41.6971676
Jennifer Grocery,"11415 S Michigan Ave, Chicago, IL 60628, USA",41.6865972,-87.6206378,ChIJt_NFeSgkDogRsCMbxYqcNX4,-87.6206378,41.6865972
Jerry's Fruit & Garden,7901 North Milwaukee Avenue,42.02484481,-87.81217245,w239508797,-87.81217245,42.02484481
Jewel-Osco,NA NA,41.653348,-87.8562493,n2774636514,-87.8562493,41.653348
Jewel-Osco,1202 State Street,41.65550652,-88.00171189,w317291250,-88.00171189,41.65550652
Jewel,NA NA,41.6742795,-87.7181486,n4285630419,-87.7181486,41.6742795
Jewel-Osco,"11730 S Marshfield Ave, Chicago, IL 60643, USA",41.6802367,-87.6645202,ChIJi7kZcPQkDogRj56B7FtyjUs,-87.6645202,41.6802367
Jewel-Osco,3243 West 115th Street,41.68303589,-87.70232982,w132101429,-87.70232982,41.68303589
Jewel-Osco,"3128 W 103rd St, Chicago, IL 60655, USA",41.706822,-87.7000157,ChIJ8f5WaSuND4gR5EO9VKZcAZ4,-87.7000157,41.706822
Jewel-Osco,NA NA,41.717426,-87.8203665,n2300405173,-87.8203665,41.717426
Jewel-Osco,"1655 E 95th St, Chicago, IL 60617, USA",41.7202655,-87.5829678,ChIJIQKexTMmDogRNzxOPwBBAkI,-87.5829678,41.7202655
Jewel-Osco,NA NA,41.72114993,-87.72217286,w235912280,-87.72217286,41.72114993
Jewel-Osco,"9400 S Ashland Ave, Chicago, IL 60620, USA",41.7229691,-87.6633909,ChIJS8gnq3YlDogR9ytNkeBZ4cg,-87.6633909,41.7229691
Jewel-Osco,"101 W 87th St, Chicago, IL 60620, USA",41.7352348,-87.6278611,ChIJ7z4o4FcvDogRYI1MXhjNB5k,-87.6278611,41.7352348
Jewel-Osco,7910 South Cicero Avenue,41.7472633,-87.7424027,n2300376336,-87.7424027,41.7472633
Jewel Osco,NA NA,41.7494165,-88.03821255,w117989897,-88.03821255,41.7494165
Jewel-Osco,7335 Cass Avenue,41.75385215,-87.97207775,w275799869,-87.97207775,41.75385215
Jewel-Osco,"7530 S Stony Island Ave, Chicago, IL 60649, USA",41.7581281,-87.5876064,ChIJt95Jr_MoDogRmdtZVaKrO7o,-87.5876064,41.7581281
Jewel-Osco,303 Holmes Avenue,41.78733761,-87.94993122,w224416252,-87.94993122,41.78733761
Jewel-Osco,NA NA,41.7896439,-87.8777784,n4381359458,-87.8777784,41.7896439
Jewel-Osco,"6107 S Archer Ave, Chicago, IL 60638, USA",41.7938523,-87.7703266,ChIJYRefqjYxDogR8MljUqUuxQM,-87.7703266,41.7938523
Jewel-Osco,"5320 S Pulaski Rd, Chicago, IL 60632, USA",41.7959785,-87.7250732,ChIJpbheBL0xDogRnoA0oEvHiG8,-87.7250732,41.7959785
Jewel Osco,NA NA,41.8094767,-88.0138291,n2580221882,-88.0138291,41.8094767
Jewel Osco,NA NA,41.8113367,-87.9742577,n4379929008,-87.9742577,41.8113367
Jewel-Osco,7122 40th Street,41.8206328,-87.80121752,w224933774,-87.80121752,41.8206328
Jewel-Osco,NA NA,41.82382255,-87.86816859,w181180507,-87.86816859,41.82382255
Jewel-Osco,"3644 S Archer Ave, Chicago, IL 60609, USA",41.8277869,-87.6829354,ChIJt74vUe8tDogRxgbuBT25W5Y,-87.6829354,41.8277869
Jewel-Osco,"443 E 34th St, Chicago, IL 60616, USA",41.8327447,-87.6146391,ChIJwfQrRRQsDogR_sxfV7uNuU8,-87.6146391,41.8327447
Jewel Osco,NA NA,41.8474044,-87.804217,n4621215691,-87.804217,41.8474044
Jewel-Osco,NA NA,41.84972817,-87.88224198,w191118206,-87.88224198,41.84972817
Jewel-Osco,1177 South Main Street,41.86114239,-88.01543945,w197990732,-88.01543945,41.86114239
Jewel-Osco,"1340 S Canal St, Chicago, IL 60607, USA",41.8641784,-87.639915,ChIJI4CL6_IsDogRTswyxeCuaDc,-87.639915,41.8641784
Jewel,7036 West Roosevelt Road,41.86532102,-87.80060878,w450953126,-87.80060878,41.86532102
Jewel-Osco,"1220 S Ashland Ave, Chicago, IL 60608, USA",41.8659415,-87.668581,ChIJgZ_UMgUtDogRUJ1r21D89DY,-87.668581,41.8659415
Jewel-Osco,"1224 S Wabash Ave, Chicago, IL 60605, USA",41.866463,-87.6262491,ChIJl69B35osDogR5VbyA6Qtvog,-87.6262491,41.866463
Jewel-Osco,NA NA,41.87015864,-87.93563824,w544379011,-87.93563824,41.87015864
Jewel-Osco,438 Madison Street,41.8802261,-87.78633137,w450942348,-87.78633137,41.8802261
Jewel Osco,7525 Lake Street,41.88781804,-87.81337507,w293437393,-87.81337507,41.88781804
Jewel,NA NA,41.88861614,-87.97820592,w495762637,-87.97820592,41.88861614
Jewel Osco,370 North Desplaines Street,41.88869874,-87.64504793,w149509846,-87.64504793,41.88869874
Jewel-Osco,"550 N State St, Chicago, IL 60654, USA",41.8921218,-87.6284942,ChIJJ9dviK0sDogRsKzwRyDblRk,-87.6284942,41.8921218
Jewel-Osco,NA NA,41.9015752,-87.9373511,n2375290339,-87.9373511,41.9015752
Jewel-Osco,"424 W Division St, Chicago, IL 60610, USA",41.905113,-87.6395837,ChIJYYZSmjfTD4gRiLLSVFRPMAQ,-87.6395837,41.905113
Jewel-Osco,"1341 N Paulina St, Chicago, IL 60622, USA",41.906559,-87.6693964,ChIJFVSfe8XSD4gRwDhg57GSuOw,-87.6693964,41.906559
Jewel-Osco,"2520 N Narragansett Ave, Chicago, IL 60639, USA",41.9262487,-87.7863756,ChIJI2SHZGXLD4gRLRkVk1p80C4,-87.7863756,41.9262487
Jewel-Osco,"2550 N Clybourn Ave, Chicago, IL 60614, USA",41.9272784,-87.6744095,ChIJ8_fKRfLSD4gR7N45vkWwqaQ,-87.6744095,41.9272784
Jewel-Osco,"2940 N Ashland Ave, Chicago, IL 60657, USA",41.9354176,-87.6702105,ChIJ5Qmh3ffSD4gRu16ljKcINzw,-87.6702105,41.9354176
Jewel-Osco,"3400 N Western Ave, Chicago, IL 60618, USA",41.9435342,-87.6900739,ChIJOSbsJXvSD4gRQBdNfYkKaNQ,-87.6900739,41.9435342
Jewel-Osco,"3570 N Elston Ave, Chicago, IL 60618, USA",41.9453419,-87.7085194,ChIJtfDxwJrND4gRf-DXSM7WOPo,-87.7085194,41.9453419
Jewel-Osco,"3531 North Broadway, Chicago, IL 60657, USA",41.9468754,-87.6462007,ChIJv-T35LrTD4gRj7jqfgEWE9o,-87.6462007,41.9468754
Jewel-Osco,"3630 N Southport Ave, Chicago, IL 60613, USA",41.9481402,-87.6643538,ChIJxa0eYE7SD4gRh70ae0ORR0g,-87.6643538,41.9481402
Jewel Osco,NA NA,41.9539684,-87.787687,n1640172675,-87.787687,41.9539684
Jewel-Osco,"6430 W Irving Park Rd, Chicago, IL 60634, USA",41.9540275,-87.7877659,ChIJqQJTJ5LLD4gR22o3ESItztQ,-87.7877659,41.9540275
Jewel-Osco,"4660 W Irving Park Rd, Chicago, IL 60641, USA",41.9554523,-87.7448959,ChIJ7ROaSEjMD4gRuQMX7zifDkc,-87.7448959,41.9554523
Jewel-Osco,"4250 N Lincoln Ave, Chicago, IL 60618, USA",41.9584511,-87.6823582,ChIJ-celfBTSD4gRH4Mbc61X8Xg,-87.6823582,41.9584511
Jewel-Osco,"4355 N Sheridan Rd, Chicago, IL 60613, USA",41.9613052,-87.6527868,ChIJP5IYaszTD4gR_1UKvmZjjhg,-87.6527868,41.9613052
Jewel Osco,4734 North Cumberland Avenue,41.9656283,-87.8379362,n2837157413,-87.8379362,41.9656283
Jewel-Osco,"4729 N Central Ave, Chicago, IL 60630, USA",41.9669261,-87.7667485,ChIJr6-q_A_MD4gRy2TlDcz9upE,-87.7667485,41.9669261
Jewel Osco,343 Irving Park Road,41.9670955,-87.9908672,n5192231365,-87.9908672,41.9670955
Jewel Osco,NA NA,41.975115,-87.810902,n2969144317,-87.810902,41.975115
Jewel-Osco,"7342 W Foster Ave, Chicago, IL 60656, USA",41.9752201,-87.8110163,ChIJ2xRvftbLD4gRRPssCoF9oLk,-87.8110163,41.9752201
Jewel-Osco,"4042 W Foster Ave, Chicago, IL 60630, USA",41.9762809,-87.7298879,ChIJJ3eCzNfND4gRjTg85v-YLVE,-87.7298879,41.9762809
Jewel-Osco,"5343 North Broadway, Chicago, IL 60640, USA",41.9792159,-87.6593094,ChIJ9yVdmYHRD4gR8chPKYS9p00,-87.6593094,41.9792159
Jewel-Osco,"5516 N Clark St, Chicago, IL 60640, USA",41.982843,-87.6692754,ChIJe9ieDI_RD4gRVQUSLN0y08c,-87.6692754,41.982843
Jewel Osco,NA NA,42.005195,-88.0050872,n492622335,-88.0050872,42.005195
Jewel-Osco,5567 West Touhy Avenue,42.0109524,-87.7689922,n269691641,-87.7689922,42.0109524
Jewel-Osco,"1763 Howard St, Chicago, IL 60626, USA",42.0175531,-87.6745302,ChIJfcoSm0vQD4gRWzhLQg9OWd4,-87.6745302,42.0175531
Jewel-Osco,2485 Howard Street,42.0208142,-87.7079886,n362075598,-87.7079886,42.0208142
Jewel-Osco,"1128 Chicago Ave, Evanston, IL 60202, USA",42.0393613,-87.6807381,ChIJ0zMPexTQD4gRRFFe58XP1OY,-87.6807381,42.0393613
Jimmy Bannos' Big Easy at Urban Market,"10 S Dearborn St, Chicago, IL 60603, USA",41.8814319,-87.630279,ChIJnQvJbLssDogRmsAMnWGaO8U,-87.630279,41.8814319
Jimmy's Food On 35th St,"234 E 35th St, Chicago, IL 60616, USA",41.8311687,-87.620391,ChIJPxIgJQosDogRY5eeurR-7QA,-87.620391,41.8311687
Joe & Frank's Market,NA NA,41.7916743,-87.8010706,n4381359448,-87.8010706,41.7916743
Joong Boo Market,"3333 N Kimball Ave, Chicago, IL 60618, USA",41.9419207,-87.7123101,ChIJR5al-ZvND4gR3O7g9C-FnRo,-87.7123101,41.9419207
Jordan Valley Foods,"1976 E 73rd St, Chicago, IL 60649, USA",41.7626219,-87.5764417,ChIJMcR7AFkoDogRLOuY0Il7h_A,-87.5764417,41.7626219
K & K Foods,"1130 W 51st St, Chicago, IL 60609, USA",41.8016748,-87.6540767,ChIJ380ZWIkuDogRNe9lBWqfEKA,-87.6540767,41.8016748
K & M Groceries,"3179 W Madison St, Chicago, IL 60612, USA",41.8808172,-87.7059204,ChIJ1YEYbKMyDogRWyrBN_TRdUE,-87.7059204,41.8808172
Kaneshie Supermarket,"4552 N Broadway St, Chicago, IL 60640, USA",41.9647276,-87.6572406,ChIJdU58WM3TD4gRG9mqVP7gJUs,-87.6572406,41.9647276
Kasmo Food Market,"249 E 115th St, Chicago, IL 60628, USA",41.6852932,-87.616083,ChIJvTTK2JwmDogRcAdZkAOTwpo,-87.616083,41.6852932
K-Buena Supermarket,"4324 W Marquette Rd, Chicago, IL 60629, USA",41.771572,-87.730906,ChIJd3T-PFEwDogRvE3ky5xMplQ,-87.730906,41.771572
Kedzie & Ohio Food Mart,"549 N Kedzie Ave, Chicago, IL 60612, USA",41.8917764,-87.7063325,ChIJWwVJCq4yDogRrixxwU89DyU,-87.7063325,41.8917764
Kevin Grocery & Liquor,"Chicago, IL 60632, USA",41.8084431,-87.6919445,ChIJJYXolwQuDogRyDvqn2kggb4,-87.6919445,41.8084431
Kevin's Grocery,"5449 W Madison St, Chicago, IL 60644, USA",41.8800385,-87.7619833,ChIJkczlLkIzDogRQbeiHo2YYZ8,-87.7619833,41.8800385
Key Food & Liquor,"13355 S Indiana Ave, Chicago, IL 60827, USA",41.6521249,-87.6169913,ChIJP8xkw1UhDogRMIB_DVMhgAs,-87.6169913,41.6521249
Kimbark Market,"7393 S Kimbark Ave, Chicago, IL 60619, USA",41.7606337,-87.5931544,ChIJMd9Ppu4oDogRfiXfo7it7os,-87.5931544,41.7606337
King Supermarket,"400 E 41st St, Chicago, IL 60653, USA",41.8204664,-87.6162772,ChIJ3aO_TvkrDogRoCyg51qNA3k,-87.6162772,41.8204664
Kings Food & Market,"12760 S Halsted St, Chicago, IL 60628, USA",41.6614218,-87.6418494,ChIJ36HMb3QkDogRFNz3_v37md0,-87.6418494,41.6614218
Kol Tuv Kosher Foods,2938 West Devon Avenue,41.9976151,-87.7036744,n1686095579,-87.7036744,41.9976151
Kordian's Market,6332 West Higgins Avenue,41.9762385,-87.786376,n4251831552,-87.786376,41.9762385
L & P Liquor & Grocery,"4001 W Lawrence Ave, Chicago, IL 60630, USA",41.968057,-87.7282524,ChIJaYqsbtDND4gRoju1ga49yVA,-87.7282524,41.968057
La Chaparrita,"2500 S Whipple St, Chicago, IL 60623, USA",41.8462601,-87.7017093,ChIJn8S5RXcyDogRPGwG09or9IU,-87.7017093,41.8462601
La Chiquita Supermarket,"2637 S Pulaski Rd, Chicago, IL 60623, USA",41.843013,-87.7243548,ChIJoUYOLEQyDogR4ClOu7w4dMQ,-87.7243548,41.843013
La Chiquita Supermarket,"3555 W 26th St, Chicago, IL 60623, USA",41.8442802,-87.7145889,ChIJIRt7BmkyDogR1663tcLb-g0,-87.7145889,41.8442802
La Esquinita Grocery Store Inc,"3989 S Albany Ave, Chicago, IL 60632, USA",41.8209469,-87.7018775,ChIJ903bZwEyDogRAx31fByuz6k,-87.7018775,41.8209469
La Familia Market,"2300 W 23rd St, Chicago, IL 60608, USA",41.8503487,-87.6832591,ChIJT2IO3ZstDogR0HuM2XlTM1g,-87.6832591,41.8503487
La Feria Groceries,"9704 S Commercial Ave # 1, Chicago, IL 60617, USA",41.7188776,-87.5511626,ChIJt1Riw-0nDogRbzg0MbxsFIk,-87.5511626,41.7188776
La Flor Grocery Store,"10500 S Ave M, Chicago, IL 60617, USA",41.7044773,-87.5378481,ChIJe8M5iHfYEYgRES9n8_c5Lec,-87.5378481,41.7044773
La Fruteria,"8909 S Commercial Ave, Chicago, IL 60617, USA",41.733356,-87.551023,ChIJjxsp7eInDogRMnDe6TVCRZM,-87.551023,41.733356
La Luna Grocery,"4200 W Armitage Ave, Chicago, IL 60639, USA",41.917373,-87.731643,ChIJsSbHqRjND4gR9UdwyyzZm0s,-87.731643,41.917373
La Municipal Super Market,"Chicago, IL 60622, USA",41.9027579,-87.6915983,ChIJR0WawK7SD4gRDZiX1R1vo88,-87.6915983,41.9027579
La Paloma Supermercado,"4324 W 63rd St, Chicago, IL 60629, USA",41.778842,-87.731125,ChIJJfPysKwxDogR2z-iSjbJtVs,-87.731125,41.778842
La Placita Chicago,"1840 W 35th St, Chicago, IL 60609, USA",41.8305182,-87.6719515,ChIJc1hHEsQtDogROIeKqonHxu4,-87.6719515,41.8305182
La Providencia Grocery,"1658 W 21st St, Chicago, IL 60608, USA",41.8542068,-87.6684037,ChIJvd9j0actDogRm9bzyUez0vg,-87.6684037,41.8542068
La Soriana Inc,"4801 S Wolcott Ave, Chicago, IL 60609, USA",41.8065962,-87.6719226,ChIJ1ej4Hm4uDogRAvD7wZEclU4,-87.6719226,41.8065962
Ladany's Food Enterprises,"4649 W Armitage Ave, Chicago, IL 60639, USA",41.916754,-87.7434613,ChIJj1Tl6N3MD4gR7N9qdDMamJk,-87.7434613,41.916754
LaFollette Park Community Market,"1333 N Laramie Ave, Chicago, IL 60651, USA",41.9053144,-87.7552631,ChIJozkeS8jMD4gRc9qNG8DN7ME,-87.7552631,41.9053144
Lakeview Kitchen and Market,"3109 North Broadway, Chicago, IL 60657, USA",41.9379576,-87.6441976,ChIJvc9H2abTD4gRmlnmHjZ-7qU,-87.6441976,41.9379576
Las Rosas Mini-Market,"5448 S Kildare Ave, Chicago, IL 60632, USA",41.7933727,-87.7306497,ChIJ4aJijKMxDogRNQnAD_COjqg,-87.7306497,41.7933727
Lassak Market & Deli,NA NA,41.7594959,-87.942998,n5311289145,-87.942998,41.7594959
Latin Grocery & Liquor,"3800 W North Ave, Chicago, IL 60647, USA",41.9102058,-87.721556,ChIJX99nZTnND4gR3vuK2jHMD68,-87.721556,41.9102058
Lawndale Food Market,"3705 W 16th St, Chicago, IL 60623, USA",41.8588437,-87.7181309,ChIJRyZkOfUyDogRwW0Trb1dH8Y,-87.7181309,41.8588437
Lawrence Fish Market,"3914 W Lawrence Ave, Chicago, IL 60625, USA",41.9683836,-87.7261962,ChIJJZhykdrND4gRuX65ROMOVDU,-87.7261962,41.9683836
Leamington Foods,"5467 W Madison St, Chicago, IL 60644, USA",41.8800797,-87.7636939,ChIJGxP-R0IzDogRa09bT1p4A7A,-87.7636939,41.8800797
Leamington Foods,3240 West Roosevelt Road,41.86768426,-87.70723672,w163773528,-87.70723672,41.86768426
Leamington Foods,550 Mannheim Road,41.8808273,-87.8847243,n4654771295,-87.8847243,41.8808273
Lebanese Meat Market,"4657 N Kedzie Ave, Chicago, IL 60625, USA",41.9663754,-87.7082944,ChIJNTXBWOXND4gRAoB-3yhd8XU,-87.7082944,41.9663754
Liberty Store Fixtures & Restaurant Equipment,"1647 W 75th Pl, Chicago, IL 60620, USA",41.7568335,-87.6654337,ChIJC5i5eJgvDogRUCCZzygEViM,-87.6654337,41.7568335
Lillies Supermarket Inc,"9863 S Ewing Ave, Chicago, IL 60617, USA",41.7159641,-87.5350083,ChIJW3WbaAvYEYgRiAInRNKdrP4,-87.5350083,41.7159641
Lil's Dietary Speciality Shop,"2738 W 111th St, Chicago, IL 60655, USA",41.6920818,-87.6899893,ChIJ3xXF3tAkDogRFRaMhWzoWy8,-87.6899893,41.6920818
Lincoln Park Farmers Market,"W Armitage Ave, Chicago, IL 60614, USA",41.9155094,-87.6342359,ChIJuTGrBhfTD4gRr_tQphl6aXA,-87.6342359,41.9155094
Lincoln Square Farmers Market,"N Lincoln Ave & W Leland Ave, Chicago, IL 60625, USA",41.9665013,-87.687904,ChIJW7xAtBrSD4gRsVcPKGq27is,-87.687904,41.9665013
Lindo Michoacan,"3142 W Lawrence Ave, Chicago, IL 60625, USA",41.9687282,-87.7078726,ChIJ4SwHK-XND4gRazIo9gN5XQo,-87.7078726,41.9687282
Lisa's Food Market,"2857 N Ridgeway Ave, Chicago, IL 60618, USA",41.933583,-87.720545,ChIJ95BDugvND4gRgG-hQgo4300,-87.720545,41.933583
Little Munchkins,"2018 W 51st St, Chicago, IL 60609, USA",41.801477,-87.675518,ChIJC8rfeGsuDogRAFq2SkG4SSs,-87.675518,41.801477
Local Foods,"1427 W Willow St #1, Chicago, IL 60642, USA",41.9139931,-87.6631064,ChIJzUND393SD4gRxFlP-WQHv8I,-87.6631064,41.9139931
Logan Square Summer Farmers Market,"Chicago, IL 60647, USA",41.9282754,-87.7049559,ChIJydOD4nrND4gRI4nrzXkPzXY,-87.7049559,41.9282754
London Town Food,"702 E 100th Pl, Chicago, IL 60628, USA",41.7125888,-87.605181,ChIJ_yklQWwmDogRpiBExzHLx6M,-87.605181,41.7125888
Los Jasminez,"1100 W 18th St, Chicago, IL 60608, USA",41.8581815,-87.6534617,ChIJdyMbLP8sDogRA18H0D8bGpE,-87.6534617,41.8581815
Los Potrillos Food Market,3622-3624 West Belmont Avenue,41.93947215,-87.7184229,w163896902,-87.7184229,41.93947215
Los Primos Inc Grocery,"3247 W Montrose Ave, Chicago, IL 60618, USA",41.9610749,-87.7101165,ChIJAWzyK-zND4gRlhD7r-SCfl0,-87.7101165,41.9610749
Los Sauces Grocery,"5852 W Diversey Ave, Chicago, IL 60639, USA",41.9312934,-87.7731724,ChIJv8QhuoPMD4gR6LGACFkOXmk,-87.7731724,41.9312934
Low-Line Market at Southport,"3410 N Southport Ave, Chicago, IL 60657, USA",41.9438065,-87.6640193,ChIJvwQ7l1HSD4gR0C-6Pdut7d8,-87.6640193,41.9438065
Luciano's Grocery Store,"1712 W 18th St, Chicago, IL 60608, USA",41.8580061,-87.669333,ChIJlzFIQggtDogR2wXDpCNUAfY,-87.669333,41.8580061
M & M Discount Inc,"1607 W 59th St, Chicago, IL 60636, USA",41.7866492,-87.6647231,ChIJCflznlAuDogRa4Az4rmcXaI,-87.6647231,41.7866492
M & M Grocery,"4533 N Sheridan Rd, Chicago, IL 60640, USA",41.9646797,-87.6546677,ChIJtSaijc3TD4gR70HrAylgKl4,-87.6546677,41.9646797
Madison Grocery & Beauty,"4017 W Madison St, Chicago, IL 60624, USA",41.8805318,-87.7263718,ChIJtXoWOsMyDogRHu8r1KoSlPs,-87.7263718,41.8805318
Mango Market,"1458 N Western Ave, Chicago, IL 60622, USA",41.9083854,-87.6873827,ChIJv-p40brSD4gRNpCYeK6B7W4,-87.6873827,41.9083854
Manny's Grocery,"7627 S Jeffery Ave, Chicago, IL 60649, USA",41.756263,-87.575736,ChIJf6GyOF4oDogR-VMrNLfDW3M,-87.575736,41.756263
Marcello's Market and Deli,"100 W Randolph St, Chicago, IL 60601, USA",41.8852486,-87.6315779,ChIJYcD4drosDogRtj8b3xr8Mp8,-87.6315779,41.8852486
Margarita's Meat Market,"2709 E 79th St, Chicago, IL 60649, USA",41.7516018,-87.5586917,ChIJDZoG2xQoDogRWJbavHa2mhc,-87.5586917,41.7516018
Mariano's,"3857 S Martin Luther King Dr, Chicago, IL 60653, USA",41.8242009,-87.6158917,ChIJr16JMPgrDogRJn8yKYSvTjk,-87.6158917,41.8242009
Mariano's,"333 E Benton Pl Suite 206, Chicago, IL 60601, USA",41.885326,-87.6189234,ChIJo9X181crDogRaEqrf4G9v7I,-87.6189234,41.885326
Mariano's,"40 S Halsted St, Chicago, IL 60661, USA",41.8812137,-87.6476595,ChIJf56prsQsDogR1ZIKNBWokaA,-87.6476595,41.8812137
Mariano's,"2021 W Chicago Ave, Chicago, IL 60622, USA",41.895527,-87.6784275,ChIJYzCVr0otDogRvZsJTDwqXUI,-87.6784275,41.895527
Mariano's,"1615 S Clark St, Chicago, IL 60616, USA",41.8593299,-87.6296219,ChIJNaEnx4gsDogRSvMJjPSuO10,-87.6296219,41.8593299
Mariano's,"3145 S Ashland Ave, Chicago, IL 60608, USA",41.8360625,-87.6636752,ChIJN5MvEbYtDogRum48zi8OXAw,-87.6636752,41.8360625
Mariano's,"1800 W Lawrence Ave, Chicago, IL 60640, USA",41.9694105,-87.6750103,ChIJr5x_ziPSD4gR6ggfC-zA0uo,-87.6750103,41.9694105
Mariano's,"2112 N Ashland Ave, Chicago, IL 60614, USA",41.9209232,-87.6690914,ChIJYX-nu-jSD4gR0LYi-YU1le4,-87.6690914,41.9209232
Mariano's,"3350 N Western Ave, Chicago, IL 60618, USA",41.9424388,-87.6899609,ChIJcbLNdHvSD4gRgIJK0vnJNAU,-87.6899609,41.9424388
Mariano's,"1500 N. Clybourn Ave., #C104, Chicago, IL 60610, USA",41.9082178,-87.6465493,ChIJJSiZHjvTD4gRmKQNVa-jbaQ,-87.6465493,41.9082178
Mariano's,"3030 North Broadway Suite 100, Chicago, IL 60657, USA",41.9374183,-87.6447067,ChIJJx-TGKfTD4gRzlQFzvvCJ4s,-87.6447067,41.9374183
Mariano's,"5353 N Elston Ave, Chicago, IL 60630, USA",41.9795041,-87.7575016,ChIJ7cA4LKDOD4gRNxU08K5OG0U,-87.7575016,41.9795041
Mariano's,"5201 N Sheridan Rd, Chicago, IL 60640, USA",41.9769123,-87.6544646,ChIJ1dstXX7RD4gRb-JwAp76ycI,-87.6544646,41.9769123
Mariano's,14 Garden Market Street,41.80398158,-87.89140745,w131830783,-87.89140745,41.80398158
Mariano's,1900 South Cumberland Avenue,41.98734856,-87.83796239,w131832693,-87.83796239,41.98734856
Mariano's,3020 Wolf Road,41.83547882,-87.89962325,w132062046,-87.89962325,41.83547882
Mariano's,3358 West Touhy Avenue,42.01265747,-87.71417791,w394515201,-87.71417791,42.01265747
Mariano's,7401 West Lawrence Avenue,41.96550792,-87.81283158,w418501460,-87.81283158,41.96550792
Mariano's,11000 South Cicero Avenue,41.69318657,-87.74167247,w498398261,-87.74167247,41.69318657
Mariano's,2559 West 95th Street,41.71949212,-87.68793842,w517152161,-87.68793842,41.71949212
Mariano's,NA NA,41.8584427,-88.0252645,n5095628085,-88.0252645,41.8584427
Market Creations Cafe,"130 E Randolph St GF-2, Chicago, IL 60601, USA",41.8849304,-87.6237408,ChIJuzJe_aUsDogRwK5-BHUvKRU,-87.6237408,41.8849304
Market Creations Cafe,"2, 233 S Wacker Dr, Chicago, IL 60606, USA",41.8788762,-87.635915,ChIJu_tp4r4sDogRuYkMHYmUAL8,-87.635915,41.8788762
Market Ease,"2600 N Narragansett Ave, Chicago, IL 60639, USA",41.9281284,-87.7859951,ChIJmwbUVGXLD4gRoKtqe9DB8og,-87.7859951,41.9281284
Market Fish 2,"242 E 103rd St, Chicago, IL 60628, USA",41.7074616,-87.6169545,ChIJY3QbmHcmDogRacZAlolQ-7Y,-87.6169545,41.7074616
Market Fresh Foods,6209 West North Avenue,41.90890474,-87.78118945,w427921133,-87.78118945,41.90890474
Market In the Park,"5050 S Lake Shore Dr, Chicago, IL 60615, USA",41.8027869,-87.5849454,ChIJv50SwXApDogReEOs6YoXr9g,-87.5849454,41.8027869
Market Insights,"3600 N Lake Shore Dr # 505, Chicago, IL 60613, USA",41.9488805,-87.6440754,ChIJ6f828LvTD4gRQkVkjb-gT3I,-87.6440754,41.9488805
Market Place,"222 W Merchandise Mart Plaza # 1478, Chicago, IL 60654, USA",41.8884896,-87.6352305,ChIJxwcsVFHTD4gRaltmQG7cC9Q,-87.6352305,41.8884896
Market Place of Chicago,"3418 W Pershing Rd, Chicago, IL 60632, USA",41.8227274,-87.7101502,ChIJ6Vw0hxsyDogRytnyT-hrsZg,-87.7101502,41.8227274
Market Place on Oakton,4817 Oakton Street,42.0249316,-87.748192,n289545133,-87.748192,42.0249316
Market Produce,"2530 W Madison St, Chicago, IL 60612, USA",41.8813454,-87.6896176,ChIJIwrWmVt0XUARRSzWoZFE4xs,-87.6896176,41.8813454
Market Properties Inc,"501 N Sacramento Blvd, Chicago, IL 60612, USA",41.8904352,-87.7003721,ChIJcbwGUKoyDogRgWz_n6d_ZjE,-87.7003721,41.8904352
Market Research LLC DMM,"3910 N Sacramento Ave, Chicago, IL 60618, USA",41.9525218,-87.7033265,ChIJG0evFIzND4gRHyfnr5-Sqdw,-87.7033265,41.9525218
Market Select,"912 N Ashland Ave, Chicago, IL 60622, USA",41.8983237,-87.667731,ChIJsfI8gdLSD4gRRCE2JmrH8h0,-87.667731,41.8983237
Market Walk Chicago,"5700 S Cicero Ave, Chicago, IL 60638, USA",41.7885612,-87.7419419,ChIJRWmjVA8xDogRiw3zBn7cAyk,-87.7419419,41.7885612
Martha's Food Market,"4501 N Kedzie Ave, Chicago, IL 60625, USA",41.9631325,-87.7081863,ChIJu0r1Ou7ND4gR28u2-Q63KW8,-87.7081863,41.9631325
Martinez Supermarket,"3301 S Morgan St, Chicago, IL 60608, USA",41.8347141,-87.6509238,ChIJJde-SzYsDogRRUm3_4WtgJs,-87.6509238,41.8347141
Martin's Grocery,"5159 W Addison St, Chicago, IL 60641, USA",41.9458911,-87.7567502,ChIJaU47imfMD4gRK4Knbjd2-V0,-87.7567502,41.9458911
Martin's Mini Market,"3801 N Cicero Ave, Chicago, IL 60641, USA",41.9498823,-87.7470587,ChIJVc9CgUXMD4gR7y865EjIaoc,-87.7470587,41.9498823
Maxwell Street Market,"800 S Desplaines St, Chicago, IL 60607, USA",41.8717212,-87.6440462,ChIJuY56XeksDogR-POEDSCayqc,-87.6440462,41.8717212
MayFlower Food,"2104 S Archer Ave, Chicago, IL 60616, USA",41.854511,-87.632385,ChIJN6dlFWIsDogR4BRTrdjUyps,-87.632385,41.854511
McCormick Market,"C, 80 E Cermak Rd, Chicago, IL 60616, USA",41.8530466,-87.6242086,ChIJzQ5ezX0sDogRAUjJfZmj7so,-87.6242086,41.8530466
Mega Grocery,"3827 W Lawrence Ave # 1, Chicago, IL 60625, USA",41.9681684,-87.7242091,ChIJd9TDG9vND4gRdwk9FsYbpnE,-87.7242091,41.9681684
Mehrab Supermarket,"2433 W Devon Ave, Chicago, IL 60659, USA",41.997449,-87.691298,ChIJ_-Sst93RD4gRg_9HpR6ePeA,-87.691298,41.997449
Meijer,9200 South Western Avenue,41.72471109,-87.68544869,w426952370,-87.68544869,41.72471109
Meldi grocery store,"3838 W Lawrence Ave, Chicago, IL 60625, USA",41.9683863,-87.7248184,ChIJP3Uh49rND4gR6teCEfXg24Q,-87.7248184,41.9683863
Mercantile exchange,"440 S LaSalle St, Chicago, IL 60605, USA",41.8758213,-87.6322637,ChIJMzRb870sDogRL044JAG8QbM,-87.6322637,41.8758213
Mercat Diumenged,"3107 W Logan Blvd, Chicago, IL 60647, USA",41.9279548,-87.7052487,ChIJw78q4XrND4gR3DYmdAXX63Q,-87.7052487,41.9279548
Metra Market,"165N Clinton St, Chicago, IL 60606, USA",41.8847756,-87.6407054,ChIJyTP5zMcsDogROLjW8PVKsXM,-87.6407054,41.8847756
Metro Market,"300 N Canal St # 3, Chicago, IL 60606, USA",41.8873246,-87.6400917,ChIJt4QwQ8gsDogRpsJPZZS8wOg,-87.6400917,41.8873246
Metro Spice Mart,"229 S Jefferson St, Chicago, IL 60661, USA",41.878453,-87.642521,ChIJzXdoZ88sDogRqSXN6Z9am_I,-87.642521,41.878453
Mi Lindo San Jose - Grocery Store,"3519 W Chicago Ave, Chicago, IL 60651, USA",41.8952821,-87.7145963,ChIJ6XWn47QyDogRYhEp-gxrw7g,-87.7145963,41.8952821
Mi Mexico Grocery Store,"2601 W 59th St, Chicago, IL 60629, USA",41.7863737,-87.6889412,ChIJtX60lC8uDogRjTLyj5_tUCk,-87.6889412,41.7863737
Middle East Bakery & Grocery,"1512 W Foster Ave, Chicago, IL 60640, USA",41.9762903,-87.6688291,ChIJl1rfEYjRD4gRfUmD6UcDy5Y,-87.6688291,41.9762903
Midori Market,"4511 N Hermitage Ave, Chicago, IL 60640, USA",41.9637774,-87.6720329,ChIJ6Vj9ejvSD4gRV3YO_WZW55k,-87.6720329,41.9637774
Mid-Town Food Store,"3855 W Division St, Chicago, IL 60651, USA",41.9026032,-87.7236623,ChIJIWY1YTHND4gR7MaiIh3usOo,-87.7236623,41.9026032
Midtown Produce,NA NA,41.9363945,-87.7196532,n3627801814,-87.7196532,41.9363945
Midway Market,"6031 S Ellis Ave, Chicago, IL 60637, USA",41.7850866,-87.6003224,ChIJz6N4xiIpDogRCozX1Adviq0,-87.6003224,41.7850866
Midwest Grocery Inc,"5453 W Madison St, Chicago, IL 60644, USA",41.8800362,-87.7621635,ChIJ_3QvLkIzDogRoHqXoz3Iksc,-87.7621635,41.8800362
Milwaukee Fresh Market,NA NA,41.93171,-87.7191038,n3641114045,-87.7191038,41.93171
MNS Food Market,"5615 W Madison St, Chicago, IL 60644, USA",41.8800454,-87.7654722,ChIJUyTo3EIzDogRt5I6XSzLHls,-87.7654722,41.8800454
Momo Market,"1153 E 95th St, Chicago, IL 60619, USA",41.7218573,-87.5951263,ChIJfwsAazwmDogRdA7GRXFMisw,-87.5951263,41.7218573
Monets Food Mart,"2145 W Division St, Chicago, IL 60622, USA",41.9029399,-87.6814706,ChIJ2bL2T7bSD4gRZekJbpdfP2Q,-87.6814706,41.9029399
Montrose Deli,5411 West Montrose Avenue,41.96032434,-87.76276844,w162713263,-87.76276844,41.96032434
Montrose Foodmarket,NA NA,41.9524416,-87.7913948,n2837157414,-87.7913948,41.9524416
Moon Star Grocery,"735 W 69th St, Chicago, IL 60621, USA",41.7687648,-87.6431121,ChIJednpgRkvDogRBFNDdQeBAyE,-87.6431121,41.7687648
Morelia Supermarket,"7300 N Western Ave, Chicago, IL 60645, USA",42.014479,-87.691411,ChIJz9SBH9PRD4gRXN6NV6f2Yz0,-87.691411,42.014479
Morelia Supermarket Inc,"4833 W Diversey Ave, Chicago, IL 60639, USA",41.9313231,-87.747857,ChIJwyhPufDMD4gRdenGbhZQ-wc,-87.747857,41.9313231
Morse Fresh Market,"1430 W Morse Ave, Chicago, IL 60626, USA",42.0079887,-87.66709,ChIJm9QhMa7RD4gRNArLQftoypk,-87.66709,42.0079887
Mrs. Greens (Closed),NA NA,41.9216581,-87.643137,n4191676730,-87.643137,41.9216581
Municipal Foods,"2559 W Division St, Chicago, IL 60622, USA",41.9025977,-87.6917429,ChIJ8xLauK7SD4gRq7oZkJ-2XC8,-87.6917429,41.9025977
N & A Food Market Inc,"1145 W 84th St, Chicago, IL 60620, USA",41.7411687,-87.652992,ChIJGVSzCHwvDogRTqAjfPg0PDs,-87.652992,41.7411687
National Bridal Market Chicago,"222 W Merchandise Mart Plaza, Chicago, IL 60654, USA",41.888519,-87.63548,ChIJ____-rYsDogRmzukrdmdcqw,-87.63548,41.888519
Nayab Mart,"2449 W Devon Ave, Chicago, IL 60659, USA",41.9975966,-87.6918501,ChIJpXEFz93RD4gR0ONaNaff_mY,-87.6918501,41.9975966
Neighborhood Supermarket,"5450 W Harrison St, Chicago, IL 60644, USA",41.8731301,-87.7613804,ChIJZyVq_2szDogRojnGiPYyTwM,-87.7613804,41.8731301
Nelly's Food Market,"1901 N Karlov Ave, Chicago, IL 60639, USA",41.9154707,-87.7287604,ChIJhXK47iLND4gRcY73gCbKz8Y,-87.7287604,41.9154707
New City Market,"4404 S Wood St, Chicago, IL 60609, USA",41.8137519,-87.6701964,ChIJEUdLBHcuDogR05zArtR-fTI,-87.6701964,41.8137519
New Market Mortgage Inc,"6606 W Irving Park Rd, Chicago, IL 60634, USA",41.9529561,-87.7917387,ChIJPzDHp5bLD4gReOS7jUHNH9U,-87.7917387,41.9529561
New Markets Support Company,"10 S Riverside Plaza, Chicago, IL 60606, USA",41.8812521,-87.6391178,ChIJAQAARccsDogRKPDGSfdvtbM,-87.6391178,41.8812521
New Quick Market,"8301 S Kedzie Ave, Chicago, IL 60652, USA",41.7421998,-87.7018789,ChIJo6ICUQEwDogRmtZAIArhMfE,-87.7018789,41.7421998
Nicky's Fruit Market,"3657 W Lawrence Ave, Chicago, IL 60625, USA",41.9682228,-87.7205244,ChIJDVlR7tzND4gRJtk94epwcSQ,-87.7205244,41.9682228
Nineveh Grocery & Meat,"2850 W Devon Ave, Chicago, IL 60659, USA",41.997721,-87.7016159,ChIJywi4kCHOD4gRuCvLcmiFsTU,-87.7016159,41.997721
Nohadra Grocery,"2959 W Devon Ave, Chicago, IL 60659, USA",41.997228,-87.704241,ChIJpxnrQiLOD4gRRWcLEv15hmg,-87.704241,41.997228
Nopalitos Carrillo Grocery,"5916 S Pulaski Rd, Chicago, IL 60629, USA",41.785344,-87.7233239,ChIJ1xtqILExDogRb4VjsklTGkw,-87.7233239,41.785344
North Lawndale Community Market,"1420 S Albany Ave, Chicago, IL 60623, USA",41.861866,-87.7034175,ChIJhXoqoYYyDogREm4sXuchjio,-87.7034175,41.861866
North Pulaski Fresh Market,"3850 W North Ave, Chicago, IL 60647, USA",41.9100823,-87.7234178,ChIJs3DNxzvND4gRNktHF0LXZyQ,-87.7234178,41.9100823
Northeastern Fruit & Garden Center,6000 North Lincoln Avenue,41.99065782,-87.70849081,w156840909,-87.70849081,41.99065782
Old Town Market,"1810 N Cleveland Ave, Chicago, IL 60614, USA",41.9150302,-87.6412945,ChIJ8yAzKT7TD4gRPhkj5bbcwkk,-87.6412945,41.9150302
Old World Market,"5129 North Broadway Street, 1, Chicago, IL 60640, USA",41.9756115,-87.6593793,ChIJyZ5QcYDRD4gRVdQNiuvtj6E,-87.6593793,41.9756115
Olivaceto,77 South La Grange Road,41.8130174,-87.8693601,n4131897436,-87.8693601,41.8130174
Olivia's Market,"2014 W Wabansia Ave, Chicago, IL 60647, USA",41.9123876,-87.6780943,ChIJmX0aXr_SD4gRTle59juarfw,-87.6780943,41.9123876
One Stop,"7357 S Racine Ave, Chicago, IL 60636, USA",41.7597461,-87.6537477,ChIJW-RikAsvDogR2nkdNAKK-fY,-87.6537477,41.7597461
One Stop Food & Liquors,"4301 S Lake Park Ave, Chicago, IL 60653, USA",41.8162115,-87.5982571,ChIJJaSM2N8rDogRD6CiMLk1g5E,-87.5982571,41.8162115
One Stop Mart,"207 Jackson Blvd, Chicago, IL 60606, USA",41.878021,-87.6341195,ChIJOSk8iL4sDogRHrqFVTqwYkQ,-87.6341195,41.878021
Open Produce,"1635 E 55th St, Chicago, IL 60615, USA",41.79516,-87.58511,ChIJ5VEfS3MpDogRO5WcsBkt2eU,-87.58511,41.79516
Oscar's Foods,"6125 W Belmont Ave, Chicago, IL 60634, USA",41.9382159,-87.7797027,ChIJiZ022YHLD4gRM9TCVuce1o4,-87.7797027,41.9382159
Par-Birdie Foods,2234 West Devon Avenue,41.997899,-87.686469,n3758385128,-87.686469,41.997899
Park To Shop Supermarket,"2425 S Wallace St, Chicago, IL 60616, USA",41.8485631,-87.6409637,ChIJyTwU9lwsDogR2PQu0jQug-Y,-87.6409637,41.8485631
Park Tower Market,"5419 N Sheridan Rd #114, Chicago, IL 60640, USA",41.9804581,-87.6545995,ChIJAemwTHnRD4gRAZbkZxe2CBc,-87.6545995,41.9804581
Parking,"1440 S Wabash Ave, Chicago, IL 60605, USA",41.8625695,-87.6260512,ChIJH3-zrIUsDogRNHXzBFpkQ4g,-87.6260512,41.8625695
Parkside Food & Liquor,"3215 W 71st St, Chicago, IL 60629, USA",41.7642605,-87.703483,ChIJjWbjOCQwDogR8ddsrOGx2IQ,-87.703483,41.7642605
Paseo Boricua Grocery,"2706 W Division St, Chicago, IL 60622, USA",41.9031743,-87.6948322,ChIJvSXWCKnSD4gR1LhJadvUsYQ,-87.6948322,41.9031743
Patel Brothers,"2610 W Devon Ave, Chicago, IL 60659, USA",41.99784,-87.695275,ChIJq49brN_RD4gRzePntpkz_gM,-87.695275,41.99784
Paulina Market,"3501 N Lincoln Ave, Chicago, IL 60657, USA",41.9452602,-87.6723029,ChIJZUM9UVvSD4gRGTWJk_y-5Hs,-87.6723029,41.9452602
Paulina Super Market Inc,"7622 N Paulina St, Chicago, IL 60626, USA",42.020155,-87.673394,ChIJoXmnVUnQD4gRXxKg_GS0tPg,-87.673394,42.020155
Paul's Corner Foods,"723 E 63rd St, Chicago, IL 60637, USA",41.780144,-87.607469,ChIJpZIjcyYpDogRdO8wOfOzXb8,-87.607469,41.780144
Pepe<U+0092>s market,"3012 W 40th Pl, Chicago, IL 60632, USA",41.8200824,-87.7001751,ChIJxzvTAwEyDogRyhkOHjTk9G8,-87.7001751,41.8200824
Perry Food Store,"101 W 119th St, Chicago, IL 60628, USA",41.6779005,-87.6253748,ChIJb4BIQyIkDogR9MzvIfbtJns,-87.6253748,41.6779005
Pete's Fresh Market,259 Lake Street,41.88780526,-87.78254141,w132062457,-87.78254141,41.88780526
Pete's Fresh Market,17W675 Roosevelt Road,41.85872836,-87.97366241,w197598776,-87.97366241,41.85872836
Pete's Fresh Market #01 - 57th & Kedzie,"5724 S Kedzie Ave, Chicago, IL 60629, USA",41.7888059,-87.7037746,ChIJQ8RuQNoxDogRGOIKqkYQeZU,-87.7037746,41.7888059
Pete's Fresh Market #02 - 47th & Kedzie,"4700 S Kedzie Ave, Chicago, IL 60632, USA",41.8078239,-87.7051687,ChIJC536FYkxDogRGjkx8TmEmx0,-87.7051687,41.8078239
Pete's Fresh Market #03 - 43rd & Pulaski,"4343 S Pulaski Rd, Chicago, IL 60632, USA",41.8137706,-87.7225565,ChIJIRAAQIkxDogRpE4qFmzKuec,-87.7225565,41.8137706
Pete's Fresh Market #04 - West Lawn,"5838 S Pulaski Rd, Chicago, IL 60629, USA",41.786591,-87.72332,ChIJOZtPvbAxDogRR1c71e15-FM,-87.72332,41.786591
Pete's Fresh Market #05 - 118th & Avenue O,"3448 118th St, Chicago, IL 60617, USA",41.6820757,-87.5388156,ChIJkW0-kZ3YEYgRomx0QqNqI7U,-87.5388156,41.6820757
Pete's Fresh Market #10 - Madison & Western,"2333 W Madison St, Chicago, IL 60612, USA",41.8805197,-87.6856644,ChIJnRjXeEMtDogRxiLDpbDSbTU,-87.6856644,41.8805197
Pete's Grocery,"60623, 2526 W Cermak Rd, Chicago, IL 60608, USA",41.853308,-87.6894883,ChIJ9_4TEoMtDogRW-e1WEb6-7g,-87.6894883,41.853308
Pete's Mart,"1035 W 63rd St, Chicago, IL 60621, USA",41.7795498,-87.6510667,ChIJBc4_UfwuDogRqJEn4KJyLXs,-87.6510667,41.7795498
Pete's Meat & Produce,"2001 W 71st St, Chicago, IL 60636, USA",41.7645955,-87.6736926,ChIJ6yX4nLkvDogR6DeJCLPUzXI,-87.6736926,41.7645955
Pete's Produce,"1543 E 87th St, Chicago, IL 60619, USA",41.7367998,-87.586548,ChIJcQxuX4IoDogRjB-WR8kaozM,-87.586548,41.7367998
Pete's Produce Loomis,"1411 W 87th St, Chicago, IL 60620, USA",41.7355277,-87.6586431,ChIJ1-wM7X8lDogRmGEl28B1F6o,-87.6586431,41.7355277
Pilsen Farmers Market,"W 18th St, Chicago, IL 60608, USA",41.858101,-87.6466781,ChIJ1yOppvcsDogRKvlcOeRNKhw,-87.6466781,41.858101
Pink Salmon Fish Market,"5550 W Fullerton Ave, Chicago, IL 60639, USA",41.9241944,-87.7656218,ChIJVeC3lZDMD4gR6ktJQpt7FgI,-87.7656218,41.9241944
Plaza Food & Liquor,"3459 Ogden Ave, Chicago, IL 60623, USA",41.8552688,-87.7122801,ChIJ0cdCKGIyDogRi7_hT5gSlMk,-87.7122801,41.8552688
Plaza Jiminez,3800-3806 West Fullerton Avenue,41.92484477,-87.72217359,w163897138,-87.72217359,41.92484477
Plenty Grocery & Deli,"2036 W Division St, Chicago, IL 60622, USA",41.9034124,-87.6786889,ChIJHb4CMbbSD4gR-DQDcwmBX14,-87.6786889,41.9034124
Plum Market Old Town,"1233 N Wells St, Chicago, IL 60610, USA",41.9051607,-87.6343483,ChIJha5jo0jTD4gRZse-CAqs6_8,-87.6343483,41.9051607
Portage Park Farmers Market,"&, IL-19 & N Long Ave, Chicago, IL 60641, USA",41.953249,-87.7620844,ChIJHzhMDmzMD4gR1hD-h0El5_A,-87.7620844,41.953249
Potash Markets - State St,"875 N State St, Chicago, IL 60611, USA",41.8986604,-87.6281251,ChIJ3SbJdlLTD4gRGe1tydMOdqM,-87.6281251,41.8986604
Potash Markets- Clark Street,"1525 N Clark St, Chicago, IL 60610, USA",41.910378,-87.631231,ChIJCRLniEPTD4gRZSvm864aGeg,-87.631231,41.910378
PREMIUM FOOD & LIQUOR,"2432-2434 W 63rd St, Chicago, IL 60629, USA",41.77952,-87.685166,ChIJN0FLAjMuDogRnRYT9dW2fJE,-87.685166,41.77952
Primo Grocery,"858 W 33rd St, Chicago, IL 60608, USA",41.8348802,-87.6485473,ChIJ6aNVizcsDogRVKy4jyOq21M,-87.6485473,41.8348802
Prince Food Market,"231 S Cicero Ave, Chicago, IL 60644, USA",41.8771635,-87.7451342,ChIJsU7McRgzDogRdigXz00sjvI,-87.7451342,41.8771635
Printers Row Farmers Market,"634 S Dearborn St, Chicago, IL 60605, USA",41.8734763,-87.629411,ChIJ7Z8YmpcsDogRL6uKOzSrEv0,-87.629411,41.8734763
Produce World,8325 West Lawrence Avenue,41.96552805,-87.83579056,w217751442,-87.83579056,41.96552805
Property Markets Group,"308 W Erie St Suite 400, Chicago, IL 60654, USA",41.894191,-87.6361917,ChIJn__6IbUsDogRoMBp4U33AdA,-87.6361917,41.894191
Publican Quality Meats,"825 W Fulton Market, Chicago, IL 60607, USA",41.886604,-87.648538,ChIJxedkHNAsDogR5ogE5doNGRQ,-87.648538,41.886604
Pullman Farmers Market,"S Cottage Grove Ave & E 111th St, Chicago, IL 60628, USA",41.6931379,-87.6094919,ChIJe3v-OIYmDogR5oDjbYFKfhY,-87.6094919,41.6931379
Quick Grocery Store Inc,"6958 S Wentworth Ave, Chicago, IL 60621, USA",41.7673591,-87.6299784,ChIJw5btEiUvDogR4p5nxknSB9g,-87.6299784,41.7673591
R & A Grocery,"2601 N Halsted St, Chicago, IL 60614, USA",41.9292016,-87.6487571,ChIJv7inkgXTD4gRzMd11s8SZgo,-87.6487571,41.9292016
R & D Market,"5235 W Lake St # A, Chicago, IL 60644, USA",41.8870555,-87.7568852,ChIJWTis90czDogRmbrfQGPhwzw,-87.7568852,41.8870555
Rahmat Grocery & Meat,"2158 W Devon Ave, Chicago, IL 60659, USA",41.9979316,-87.6848638,ChIJjYD_UsLRD4gRrmNUz-nZngE,-87.6848638,41.9979316
Rainbow Grocery,"2003 W 69th St, Chicago, IL 60636, USA",41.768177,-87.673826,ChIJk5I0R7cvDogRoM86j4G4QQU,-87.673826,41.768177
Randolph Fulton Market Association,"942 W Fulton St, Chicago, IL 60607, USA",41.8869716,-87.6516374,ChIJ-xd7jdosDogRVui836dgu3I,-87.6516374,41.8869716
Randolph Street Market,"1341 W Randolph St, Chicago, IL 60607, USA",41.883814,-87.660414,ChIJL9HFTiYtDogRhwEZFNsHRrk,-87.660414,41.883814
Randolph Street Market,"47 W Division St, Chicago, IL 60610, USA",41.9037698,-87.6304046,ChIJ2co6o0_TD4gRLq0OnI4ORAw,-87.6304046,41.9037698
Raymond's Meat Market,"2402 S Blue Island Ave, Chicago, IL 60608, USA",41.8488654,-87.6753608,ChIJrc_jBqMtDogR0kzQLKPrGsc,-87.6753608,41.8488654
Reem Food Market,"6500 S Cottage Grove Ave, Chicago, IL 60637, USA",41.7766343,-87.6061021,ChIJs9L6dCcpDogRikwNnOAEHLI,-87.6061021,41.7766343
Revolution Foods,"1501 S Blue Island Ave, Chicago, IL 60608, USA",41.8614288,-87.6574731,ChIJ2U6n4_0sDogRs0012gFuNcc,-87.6574731,41.8614288
Rich's Deli,"857 N Western Ave, Chicago, IL 60622, USA",41.8974041,-87.6865414,ChIJTXxHv7LSD4gRnd0pX6zOh1I,-87.6865414,41.8974041
Rich's Fresh Market,3141 North Thatcher Avenue,41.93643489,-87.83314623,w131607270,-87.83314623,41.93643489
Richwell Market,"1835 S Canal St, Chicago, IL 60616, USA",41.856618,-87.638647,ChIJiZL5UfUsDogR9iq5OHWfrrE,-87.638647,41.856618
Rico Fresh Market,"3552 W Armitage Ave, Chicago, IL 60647, USA",41.917524,-87.715597,ChIJGcGPhWrND4gRv7ivdYyF-l0,-87.715597,41.917524
Rigos Grocery,"2858 S Lawndale Ave, Chicago, IL 60623, USA",41.8389787,-87.7172027,ChIJHcYmIUAyDogRq4niERpGxj8,-87.7172027,41.8389787
Rio Grande Fruit Market Inc,"3501 W North Ave, Chicago, IL 60647, USA",41.9098385,-87.7144975,ChIJTaom-0bND4gRKE7rRJ_qcpY,-87.7144975,41.9098385
Rio Valley Market Chicago,"3307 West 63rd Street, Chicago, IL 60629, USA",41.7788029,-87.706361,ChIJbagyvtIxDogRHD6VIZ8ICV4,-87.706361,41.7788029
Riverland Groceries,"158 N Laramie Ave, Chicago, IL 60644, USA",41.8840828,-87.7553439,ChIJb6Y-wDgzDogRQDCQH-prba8,-87.7553439,41.8840828
Riverside Foods,NA NA,41.8287768,-87.817481,n1799841939,-87.817481,41.8287768
Robert's Fish Market,"2916 W Devon Ave, Chicago, IL 60659, USA",41.9976931,-87.7029069,ChIJ96vXJSLOD4gRR2BY4eEypII,-87.7029069,41.9976931
Rogers Park Fruit Market,"7401 N Clark St, Chicago, IL 60626, USA",42.0160882,-87.6748817,ChIJwT43IUvQD4gRIlo_lxPdFlQ,-87.6748817,42.0160882
Romanian Kosher Sausage Co,NA NA,42.0127659,-87.6748296,n1247191321,-87.6748296,42.0127659
Rosa's Supermarket,"3324 W 55th St, Chicago, IL 60632, USA",41.7937299,-87.707044,ChIJcZATttwxDogRjnlUD-Fcguc,-87.707044,41.7937299
Rosebud Farms,"525 E 130th St, Chicago, IL 60628, USA",41.658247,-87.6084149,ChIJY0CgfrImDogRANp7ilS3AJY,-87.6084149,41.658247
Roseland Food Market,"10658 S Michigan Ave, Chicago, IL 60628, USA",41.700066,-87.621245,ChIJQQLKytUlDogRi0ioLixRkO4,-87.621245,41.700066
RPM Financial Markets Group,"141 W Jackson Blvd Suite 1480, Chicago, IL 60604, USA",41.8777321,-87.6322642,ChIJ3V9syr0sDogRniWKxMwBrZE,-87.6322642,41.8777321
Safe way food market,"4025 W Armitage Ave, Chicago, IL 60639, USA",41.9170079,-87.7275511,ChIJjVaVBxjND4gRVXLlw2KCbLg,-87.7275511,41.9170079
Safeway,"313 E 43rd St, Chicago, IL 60653, USA",41.8163963,-87.6193003,ChIJl-_xEQAsDogR5YhnUPgKqnc,-87.6193003,41.8163963
Sam's Club,2601 South Cicero Avenue,41.84293585,-87.7412758,w445124604,-87.7412758,41.84293585
Sam's Club,NA NA,41.7228792,-87.6851467,n2259868497,-87.6851467,41.7228792
Sam's Meat Co.,"4501 W Ann Lurie Pl, Chicago, IL 60632, USA",41.8159455,-87.7371221,ChIJ2XqZOtcsDogREeVBOfBgXck,-87.7371221,41.8159455
San Jose Groceries,"1748 W Chicago Ave, Chicago, IL 60622, USA",41.8961233,-87.6716588,ChIJvTOjyszSD4gR-rRQwGjaoeo,-87.6716588,41.8961233
Saravale Meat Market,"5254 W Irving Park Rd, Chicago, IL 60641, USA",41.9534259,-87.7593481,ChIJ0REWzGvMD4gRDnl1y6E3J4Y,-87.7593481,41.9534259
Save A Lot,7240 South Stony Island Avenue,41.76306726,-87.58729567,w211176461,-87.58729567,41.76306726
Save A Lot Foods,4439 West 63rd Street,41.77827151,-87.73405103,w162222324,-87.73405103,41.77827151
Save A Lot Foods,344 East 63rd Street,41.78069165,-87.61672223,w210905029,-87.61672223,41.78069165
Save A Lot Foods,4701 South Cottage Grove Avenue,41.80927493,-87.60561419,w210915172,-87.60561419,41.80927493
Save-A-Lot,"7240 S Stony Island Ave, Chicago, IL 60649, USA",41.7631746,-87.5874978,ChIJX0JJ9_AoDogRuZsoH1UbJS4,-87.5874978,41.7631746
Save-A-Lot,"10700 S Halsted St, Chicago, IL 60628, USA",41.6986346,-87.6429394,ChIJfwwkfLQlDogRW_qQ68SkvPo,-87.6429394,41.6986346
Save-A-Lot,"7908 S Halsted St a, Chicago, IL 60620, USA",41.7499334,-87.6443839,ChIJH8louG4vDogRcKFSjiIdoZs,-87.6443839,41.7499334
Save-A-Lot,"4439 W 63rd St, Chicago, IL 60629, USA",41.7782673,-87.7340422,ChIJOebrLKsxDogR-iV_5NnJ1xM,-87.7340422,41.7782673
Save-A-Lot,"4701 S Cottage Grove Ave, Chicago, IL 60615, USA",41.809272,-87.6055879,ChIJW6T3NFopDogR--hsxYZALLw,-87.6055879,41.809272
Save-A-Lot,"344 E 63rd St, Chicago, IL 60637, USA",41.7804841,-87.6167648,ChIJM_XJfCspDogRcTECIkLTJLU,-87.6167648,41.7804841
Save-A-Lot,"2858 E 83rd St, Chicago, IL 60617, USA",41.7451733,-87.5543634,ChIJOS7zAhIoDogR5510cUq9BiA,-87.5543634,41.7451733
Save-A-Lot,"420 S Pulaski Rd, Chicago, IL 60624, USA",41.8746048,-87.7262597,ChIJNfdqWegyDogRaD16xJSnQUE,-87.7262597,41.8746048
Save-A-Lot,"5555 W North Ave, Chicago, IL 60639, USA",41.9092301,-87.7652547,ChIJVwyowbrMD4gRBTmn6tAztVM,-87.7652547,41.9092301
Save-A-Lot Foods,3939 West Ogden Avenue,41.8502013,-87.7244101,n4569953860,-87.7244101,41.8502013
Saveway Warehouse Market,"Chicago, IL 60644, USA",41.8730071,-87.76136,ChIJ8WPrAGwzDogR1M9fIOEN4aU,-87.76136,41.8730071
Seafood City Supermarket,"5033 N Elston Ave, Chicago, IL 60630, USA",41.9728129,-87.7455798,ChIJbYNKuSjMD4gRY9dX82EsooU,-87.7455798,41.9728129
Shahjalal Grocery,"2634 W Devon Ave, Chicago, IL 60659, USA",41.997724,-87.6962241,ChIJsT3Bvd_RD4gRfWy71b4sTx0,-87.6962241,41.997724
Shell,"7859 S State St, Chicago, IL 60619, USA",41.7512218,-87.6241683,ChIJoyjOTEkvDogRkngaJ70m048,-87.6241683,41.7512218
Shop & Save Market,"5829 S Archer Ave, Chicago, IL 60638, USA",41.7955829,-87.7596855,ChIJJ6eXAj8xDogR4adwTasTo5k,-87.7596855,41.7955829
Shop & Save Market,"6312 N. Nagle Ave, Chicago, IL 60646, USA",41.9960417,-87.7885835,ChIJd2F8CUfJD4gRdDlgBgSnpiY,-87.7885835,41.9960417
Shop & Save Market,NA NA,41.7551684,-88.009761,n5256885437,-88.009761,41.7551684
Shop 'n Save,NA NA,41.7302382,-87.7976214,n2300390824,-87.7976214,41.7302382
Shwe Hinthar Yeik Mon LLC,"2415 W 19th St, Chicago, IL 60608, USA",41.8552783,-87.6868864,ChIJV2qyO50tDogRzIPA_ijdC5E,-87.6868864,41.8552783
Sixteen Market Inc,"1600 S Kedzie Ave, Chicago, IL 60623, USA",41.8589822,-87.7056791,ChIJ2dYKuocyDogR7MU79TtTWCo,-87.7056791,41.8589822
SKM Grocery,"1455 W Devon Ave, Chicago, IL 60660, USA",41.9980088,-87.6675485,ChIJbXXnLqPRD4gRAwTiXBFRkt8,-87.6675485,41.9980088
SOAR Farmers Market,"226 E Chicago Ave, Chicago, IL 60611, USA",41.8968672,-87.6216664,ChIJBVRp5VTTD4gR1LpDbuuoAZ4,-87.6216664,41.8968672
Society for Healthcare Strategy and Market Development (SHSMD),"155 N Upper Wacker Dr, Chicago, IL 60606, USA",41.884672,-87.636289,ChIJB00KOrgsDogRhEpvGYhKu1Q,-87.636289,41.884672
Somer Food Market,"2812 W Devon Ave, Chicago, IL 60659, USA",41.9976908,-87.7002285,ChIJBfRXsiHOD4gR6uuugbFsruc,-87.7002285,41.9976908
South Deering Food Mart,"10600 S Torrence Ave, Chicago, IL 60617, USA",41.7026356,-87.5597631,ChIJ1Q0khZgnDogRQqJBOO1cjgg,-87.5597631,41.7026356
South Loop Market,"235 W Van Buren St, Chicago, IL 60607, USA",41.8767324,-87.6346373,ChIJzWYxPr4sDogRsiVj_uqhUlk,-87.6346373,41.8767324
South Loop Market,"8 E 9th St, Chicago, IL 60605, USA",41.8707732,-87.6270796,ChIJ_7NojJksDogR58OeMW_r-ro,-87.6270796,41.8707732
South Loop Market,"1720 S Michigan Ave, Chicago, IL 60616, USA",41.8585259,-87.6241115,ChIJUUWB0IYsDogR36y5gkXliA0,-87.6241115,41.8585259
South Loop Market,"2955 N Sheffield Ave, Chicago, IL 60657, USA",41.9360893,-87.6538259,ChIJ5Z8FEKrTD4gRzSn1jCj5bD4,-87.6538259,41.9360893
South Loop Marketplace,"1254 Canal St, Chicago, IL 60607, USA",41.8656492,-87.6402783,ChIJwfUSp_IsDogRWAwrkK9Exvk,-87.6402783,41.8656492
Southgate Market,"1101 Canal St, Chicago, IL 60607, USA",41.868634,-87.6386375,ChIJxQqi1uwsDogRGVPqkwQo7F0,-87.6386375,41.868634
Southside Market Inc.,"3849 S Kedzie Ave, Chicago, IL 60632, USA",41.8229044,-87.704258,ChIJZ_QYcAQyDogR6b8QYYpFd68,-87.704258,41.8229044
Southtown Health Foods,"2100 95th St, Chicago, IL 60643, USA",41.7212804,-87.6748841,ChIJf9eGxmslDogRtH1w2DoU4bk,-87.6748841,41.7212804
SoutLoop Market,"224 W Van Buren St, Chicago, IL 60607, USA",41.877046,-87.634866,ChIJheh6Qb4sDogRrzgkVMDvgY8,-87.634866,41.877046
Spencer's Jolly Posh Foods,1405 West Irving Park Road,41.954235,-87.664503,n2504509098,-87.664503,41.954235
Standard Market,NA NA,41.80979041,-87.96676181,w461606571,-87.96676181,41.80979041
Stanley's Fresh Fruit & Vegetables,1556-1558 North Elston Avenue,41.91032262,-87.66224624,w209865095,-87.66224624,41.91032262
Starlight Market,"2832 S Wentworth Ave, Chicago, IL 60616, USA",41.8416087,-87.6321505,ChIJR418kW4sDogR81E08DlO5nU,-87.6321505,41.8416087
Steve's Flower Market,"1039 W Grand Ave, Chicago, IL 60642, USA",41.891097,-87.653828,ChIJ71WoHNQsDogRr18qhCrDpOU,-87.653828,41.891097
Stop & Shop,"333 W North Ave, Chicago, IL 60610, USA",41.910744,-87.638305,ChIJiY6e0D7TD4gR2O1IUOQXBzw,-87.638305,41.910744
Strack & Van Til,2627 North Elston Avenue,41.9297123,-87.6817842,n2345134682,-87.6817842,41.9297123
"Strategy 2 Market, Inc.","53 W Jackson Blvd #360, Chicago, IL 60604, USA",41.8775238,-87.6295464,ChIJl1nZ-bgsDogRo76mI6JqPks,-87.6295464,41.8775238
Stumpy's Grocery & Deli,"9001 S Ashland Ave, Chicago, IL 60620, USA",41.730118,-87.662481,ChIJc-1MZXklDogR0dt63tD-l2w,-87.662481,41.730118
Sugar Beet Co-op,812 Madison Street,41.8799549,-87.7952739,n4627034989,-87.7952739,41.8799549
Sukur Halal Foods,"1812 W Irving Park Rd, Chicago, IL 60613, USA",41.9544297,-87.6746678,ChIJM32f7UDSD4gRqJknxQ1qYYw,-87.6746678,41.9544297
Sultan's Market,"2521 N Clark St, Chicago, IL 60614, USA",41.9284409,-87.6420346,ChIJd4DGRwzTD4gRSLCyrXbdbJY,-87.6420346,41.9284409
Summit Grocery Inc,"7300 N Rogers Ave, Chicago, IL 60626, USA",42.0138293,-87.6802887,ChIJ__EOHsvRD4gRSKg3LCNDQeA,-87.6802887,42.0138293
Sumood Supermarket,"2435 W 63rd St, Chicago, IL 60629, USA",41.778949,-87.685078,ChIJbajiHDMuDogRri0YLAyJWw8,-87.685078,41.778949
Sun Fresh Market And Deli,"3640 N Central Ave, Chicago, IL 60634, USA",41.946995,-87.766953,ChIJRU4rrnrMD4gRzWrAjuMVQto,-87.766953,41.946995
Sun Sun Tong Co,"2260 S Wentworth Ave, Chicago, IL 60616, USA",41.851151,-87.632237,ChIJw7vR8mMsDogRU9hhY5veVs4,-87.632237,41.851151
Sunshine Foods,"10805 S Michigan Ave, Chicago, IL 60628, USA",41.6978637,-87.6211749,ChIJeSMKGtUlDogRAeTFlqf_zWM,-87.6211749,41.6978637
Super Fair Foods,6319 South Vernon Avenue,41.77958306,-87.61405245,w210905077,-87.61405245,41.77958306
Super Giant Groceries,"5147 W Division St, Chicago, IL 60651, USA",41.9020999,-87.7553611,ChIJ1_e7IsrMD4gRfFMhA6qGnI4,-87.7553611,41.9020999
Super Leon,"9800 S Ave L #1, Chicago, IL 60617, USA",41.7176053,-87.5365917,ChIJ4UIEsQvYEYgRFw55Zeyf4XA,-87.5365917,41.7176053
Super Low Foods,7411 West Grand Avenue,41.92457904,-87.81158486,w478380479,-87.81158486,41.92457904
Super Low Foods,3720 Rose Street,41.94717478,-87.86682537,w478380480,-87.86682537,41.94717478
Super Mercado Roman,"6978 N Clark St, Chicago, IL 60626, USA",42.00879,-87.6741637,ChIJYSbz6rbRD4gRdOHf1LBODrY,-87.6741637,42.00879
Super Mercados El Guero,"2101 W Cermak Rd, Chicago, IL 60608, USA",41.8518754,-87.6791521,ChIJP0CXPFQsDogRmmPRzJhppjc,-87.6791521,41.8518754
Supermercado Chapala,"7117 N Clark St, Chicago, IL 60626, USA",42.0120074,-87.6740973,ChIJ8_KyRLTRD4gRVVZ3XnjwBYQ,-87.6740973,42.0120074
Supermercado El Pueblo,"Chicago, IL 60625, USA",41.9684842,-87.7197113,ChIJy8aDAt3ND4gRjI47mxy1bpU,-87.7197113,41.9684842
Supermercado el taxque<f1>ito,"6309 W Grand Ave, Chicago, IL 60639, USA",41.921747,-87.783503,ChIJA5D29GbLD4gRENGH7k_OMBI,-87.783503,41.921747
Supermercado La Chiquita,4926 West Cermak Road,41.85160312,-87.7479521,w499774258,-87.7479521,41.85160312
Supermercado La Victoria,"3927 W 63rd St, Chicago, IL 60629, USA",41.7784769,-87.7213974,ChIJl3r8sLQxDogRTLsyEinugTA,-87.7213974,41.7784769
Supermercado Rivera,"4334 W 51st St, Chicago, IL 60632, USA",41.8005604,-87.732095,ChIJEXN61Z4xDogR755eiuiMgXo,-87.732095,41.8005604
Supermercado Santos,"4045 W 31st St, Chicago, IL 60623, USA",41.8367521,-87.726141,ChIJXxyaEzgyDogRkB8c4s7yBZE,-87.726141,41.8367521
Supermercados El Guero,"1701 W 47th St, Chicago, IL 60609, USA",41.8083098,-87.6675649,ChIJJx25m3ouDogRNSaz68-jDvY,-87.6675649,41.8083098
Supermercados El G¸ero #8,2101-2115 West Cermak Road,41.85187516,-87.67913441,w209785052,-87.67913441,41.85187516
Supreme Foods,"2525 S Blue Island Ave #104, Chicago, IL 60608, USA",41.8468385,-87.6793527,ChIJWyQuIZgtDogRqSd3HKEEhoA,-87.6793527,41.8468385
Swap-O-Rama Flea Markets,"4100 S Ashland Ave, Chicago, IL 60609, USA",41.818783,-87.667523,ChIJ70dDUtYtDogRTQEobnnT37g,-87.667523,41.818783
T&C Grocery,"4750 N Bernard St, Chicago, IL 60625, USA",41.9680661,-87.7148006,ChIJUULPTObND4gRuv74Eq8S3ok,-87.7148006,41.9680661
Tai Nam Food Market,"4925 N Broadway St, Chicago, IL 60640, USA",41.9722852,-87.6591108,ChIJ29PxICvSD4gRff50tmMi8ZA,-87.6591108,41.9722852
Tai Wah Grocery Store,"2226 S Wentworth Ave, Chicago, IL 60616, USA",41.852064,-87.632227,ChIJSc3QvmMsDogRiYTNYQjES2s,-87.632227,41.852064
Tamazula Grocery Inc.,"2458 W Moffat St, Chicago, IL 60647, USA",41.9150258,-87.6896261,ChIJjzdKjaLSD4gRIZzoI28m4po,-87.6896261,41.9150258
Taqueria Mi Lindo Mexico,"538 W Pershing Rd, Chicago, IL 60609, USA",41.8236802,-87.640223,ChIJfTj7-SIsDogRpfoz0kBae8A,-87.640223,41.8236802
Target,"1 S State St, Chicago, IL 60603, USA",41.8819172,-87.6275574,ChIJ_SV6lqQsDogR6MQotyfH13o,-87.6275574,41.8819172
Target,"8560 S Cottage Grove Ave, Chicago, IL 60619, USA",41.739588,-87.606444,ChIJkdPO36YoDogRFrjNTn8hN-Q,-87.606444,41.739588
Target,"11840 S Marshfield Ave, Chicago, IL 60643, USA",41.678922,-87.6651202,ChIJdbhXmvQkDogRuWVTX8qTJp0,-87.6651202,41.678922
Target,"1346 E 53rd St, Chicago, IL 60615, USA",41.7996988,-87.5938144,ChIJKeX2BmwpDogRT29LlWn1_lk,-87.5938144,41.7996988
Target,800 Broadview Village Square,41.85510346,-87.85083967,w185716734,-87.85083967,41.85510346
Target,401 East Irving Park Road,41.9674772,-87.9928153,n5192231366,-87.9928153,41.9674772
Taveon's Groceries,"4335 W Madison St, Chicago, IL 60624, USA",41.8803584,-87.7344498,ChIJv9-D_d4yDogRNnJGj2fi2D4,-87.7344498,41.8803584
Ted's Fruit Market,2840 West Devon Avenue,41.99776312,-87.70137511,w156015212,-87.70137511,41.99776312
Tempesta Market,"1372 W Grand Ave, Chicago, IL 60642, USA",41.8912403,-87.6618046,ChIJE-YC3istDogRM8z_bt6hbro,-87.6618046,41.8912403
The Dill Pickle Food Co-op,"2746 N Milwaukee Ave, Chicago, IL 60647, USA",41.930983,-87.7110639,ChIJu0mi82TND4gRYQUGl3t1GYQ,-87.7110639,41.930983
The Fishguy Market & Wellfleet,"4423 N Elston Ave, Chicago, IL 60630, USA",41.9615465,-87.7301721,ChIJ0a_iMcnND4gREfizqX-LjP0,-87.7301721,41.9615465
The French Market Cafe And Catering,"Chicago, IL 60643, USA",41.6918407,-87.6712308,ChIJIx-sceQkDogRiyyxi1LHwQk,-87.6712308,41.6918407
The Grocery Depot,"Chicago, IL 60620, USA",41.741498,-87.663109,ChIJJTncrIYvDogRV1JDwdu_izc,-87.663109,41.741498
The Parker Fulton Market,"730 W Couch Pl, Chicago, IL 60661, USA",41.8852044,-87.6472399,ChIJJxDSZ8UsDogRtckuulrxrl4,-87.6472399,41.8852044
THE WAREHOUSE FOOD MARKET,"538 W 119th St, Chicago, IL 60628, USA",41.678154,-87.63621,ChIJAc4htD8kDogRkd3_OS3G7mI,-87.63621,41.678154
Theresas Grocery,"3355 W 38th St, Chicago, IL 60632, USA",41.8241443,-87.7090974,ChIJHdIFERsyDogRyyGvIPVHtSM,-87.7090974,41.8241443
Thorndale Mart Inc,"1104 W Thorndale Ave, Chicago, IL 60660, USA",41.9902021,-87.6585977,ChIJNeyLB57RD4gRzuA5wbW8L0c,-87.6585977,41.9902021
Three R's Filipino Grocery and Cafe,"2712 W Montrose Ave, Chicago, IL 60618, USA",41.9613553,-87.696612,ChIJAUKo9gnSD4gRl4F8CO-hMpw,-87.696612,41.9613553
Three Star Food Market,"254 N Kedzie Ave, Chicago, IL 60612, USA",41.8860862,-87.7065236,ChIJWTcTQaUyDogR8TUIdEXobZc,-87.7065236,41.8860862
TJ Dollar Bazaar,4411 North Kedzie Avenue,41.96162478,-87.70791061,w163947375,-87.70791061,41.96162478
Tofi Food Market,"401 S Cicero Ave, Chicago, IL 60644, USA",41.8748984,-87.7448781,ChIJe0fmrhkzDogR1Ecf2FQNpAA,-87.7448781,41.8748984
Tony's Finer Foods,"3607 W Fullerton Ave, Chicago, IL 60647, USA",41.9242973,-87.7173973,ChIJvyxTK23ND4gRPilr3qvQIQc,-87.7173973,41.9242973
Tony's Finer Foods,"4137 N Elston Ave, Chicago, IL 60618, USA",41.9561086,-87.7224304,ChIJPx1ssrjND4gR3jJMVTJrkI0,-87.7224304,41.9561086
Tony's Finer Foods,"2500 N Central Ave, Chicago, IL 60639, USA",41.9267509,-87.7664165,ChIJy-B3C5DMD4gRU2o60EmvJ-A,-87.7664165,41.9267509
Tony's Finer Foods,"5233 N Lincoln Ave, Chicago, IL 60625, USA",41.9769101,-87.6920396,ChIJufjdx_jRD4gRft3qCXPahdc,-87.6920396,41.9769101
Tony's Finer Foods,4608 West Belmont Avenue,41.94024489,-87.74268795,w162438607,-87.74268795,41.94024489
Tony's Finer Foods,2099 North Mannheim Road,41.9134265,-87.8830024,n3666644719,-87.8830024,41.9134265
Tony's Finer Foods,NA NA,41.8459805,-87.8071845,n4203625961,-87.8071845,41.8459805
Tony's Foods,NA NA,41.7348869,-87.8001668,n2300381620,-87.8001668,41.7348869
Tony's Fresh Market,"5630 W Belmont Ave, Chicago, IL 60634, USA",41.9386601,-87.767945,ChIJz4tKa33MD4gRwHUJzPLzSRo,-87.767945,41.9386601
Torres,NA NA,41.892163,-87.8568243,n4207792402,-87.8568243,41.892163
Torres Mini Market,"2324 S Leavitt St, Chicago, IL 60608, USA",41.8495426,-87.6807949,ChIJA08wD5ktDogRkqtXOEdubRk,-87.6807949,41.8495426
Tradeforecaster Global Markets LLC,"141 W Jackson Blvd, Chicago, IL 60604, USA",41.8776341,-87.6324314,ChIJxXdiNbwsDogRUGWUwBeD414,-87.6324314,41.8776341
Trader Joe's,"44 E Ontario St, Chicago, IL 60611, USA",41.893445,-87.6261918,ChIJsc8eHa0sDogROHgv3jVu424,-87.6261918,41.893445
Trader Joe's,"1147 S Wabash Ave, Chicago, IL 60605, USA",41.8677995,-87.6254808,ChIJaTGaBpssDogR9iA4JSS_C0E,-87.6254808,41.8677995
Trader Joe's,"667 W Diversey Pkwy, Chicago, IL 60614, USA",41.932421,-87.6462622,ChIJOwkY-gjTD4gR0nq9G24qXoI,-87.6462622,41.932421
Trader Joe's,"1840 N Clybourn Ave, Chicago, IL 60614, USA",41.9144882,-87.6549838,ChIJcW32xiHTD4gRxBLo2nTHOms,-87.6549838,41.9144882
Trader Joe's,"3745 N Lincoln Ave, Chicago, IL 60613, USA",41.949959,-87.675042,ChIJGzaZMkLSD4gRdbkdpeLGPuc,-87.675042,41.949959
Trader Joe's,"1211 Chicago Ave, Evanston, IL 60202, USA",42.03982,-87.6800729,ChIJH60ffRTQD4gRAfIHX0Htlc4,-87.6800729,42.03982
Trader Joe's,NA NA,41.81737537,-87.86936816,w98917703,-87.86936816,41.81737537
Trader Joe's,483 North Harlem Avenue,41.89025692,-87.80471802,w326482544,-87.80471802,41.89025692
Trader Joe's,NA NA,41.81106,-87.989196,n3449555795,-87.989196,41.81106
Trader's Joe,1840 NA,41.9145533,-87.6549993,n2485876939,-87.6549993,41.9145533
Treasure Island Foods,"1526 E 55th St, Chicago, IL 60615, USA",41.796112,-87.588629,ChIJ6WxYu3IpDogR9_0HvEUupbM,-87.588629,41.796112
Treasure Island Foods,"75 W Elm St, Chicago, IL 60610, USA",41.9031216,-87.6308414,ChIJn_6hqU_TD4gRslHQDisooSM,-87.6308414,41.9031216
Treasure Island Foods,"680 N Lake Shore Dr, Chicago, IL 60611, USA",41.8947521,-87.616833,ChIJ2yZ71lQrDogR-BlQLYqzTwk,-87.616833,41.8947521
Treasure Island Foods,"1639 N Wells St, Chicago, IL 60614, USA",41.912103,-87.634268,ChIJd73FBEHTD4gRxU6JdonRmF8,-87.634268,41.912103
Treasure Island Foods,"3460 North Broadway, Chicago, IL 60657, USA",41.9448744,-87.6463106,ChIJ1dn-1aTTD4gRskG_7DbAzd8,-87.6463106,41.9448744
Treasure Island Foods,"2121 N Clybourn Ave, Chicago, IL 60614, USA",41.920825,-87.661521,ChIJzXsLQ-HSD4gRglUB9jQKcrM,-87.661521,41.920825
Tsukiji Fish Market,"1156 W Grand Ave, Chicago, IL 60642, USA",41.8913068,-87.6568195,ChIJ9zXq3dUsDogR7YKh6-UzM_w,-87.6568195,41.8913068
Tuscan Hen Market,"4019 N Damen Ave, Chicago, IL 60618, USA",41.9548396,-87.6785058,ChIJB-ZYu2rSD4gRgev_ZFGAXxY,-87.6785058,41.9548396
Ultra Foods,491 East Roosevelt Road,41.85838042,-88.00530278,w197977916,-88.00530278,41.85838042
Ultra Foods,7520 Roosevelt Road,41.8638458,-87.8119205,n4203574592,-87.8119205,41.8638458
Universal Fruit Market,"1942 W 51st St, Chicago, IL 60609, USA",41.8013414,-87.67376,ChIJ74lw8WsuDogRe-4WHdk89JA,-87.67376,41.8013414
Uptown Grocery,"4024 W Madison St, Chicago, IL 60624, USA",41.8811088,-87.7267005,ChIJR0vdO8MyDogRim1rek5s9SA,-87.7267005,41.8811088
V & V Supremo Foods,"1934 W 21st St, Chicago, IL 60608, USA",41.8542953,-87.675124,ChIJ8Wqv_qAtDogRH5KfnCCQLag,-87.675124,41.8542953
Varghese Sharon S DDS,"3332 N Western Ave, Chicago, IL 60618, USA",41.9416157,-87.6897196,ChIJHQc-qXzSD4gROtldE6jFpNs,-87.6897196,41.9416157
Viet Hoa Plaza,"1051 W Argyle St, Chicago, IL 60640, USA",41.9731061,-87.656649,ChIJKWRKGNXTD4gRZKLf5bXj0CQ,-87.656649,41.9731061
Village Food Mart,7907-7911 South Wood Street,41.75005489,-87.66802801,w209637974,-87.66802801,41.75005489
Vintage Garage Chicago Flea Market,"5051 North Broadway, Chicago, IL 60640, USA",41.9741659,-87.659192,ChIJAVhfvirSD4gRM_mANgwVaXU,-87.659192,41.9741659
W Grocer,NA NA,41.9105804,-87.6798481,n3575120595,-87.6798481,41.9105804
Walgreens,NA NA,41.9669927,-87.9969637,n5192231379,-87.9969637,41.9669927
Walmart,NA NA,42.01495286,-87.76871963,w24824735,-87.76871963,42.01495286
Walmart,3626 West Touhy Avenue,42.01282573,-87.7191539,w344392315,-87.7191539,42.01282573
Walmart,3320 South Cicero Avenue,41.8309741,-87.74726792,w413250853,-87.74726792,41.8309741
Walmart,NA NA,41.904616,-87.908666,n5315600765,-87.908666,41.904616
Walmart,NA NA,41.706569,-87.800466,n5315600816,-87.800466,41.706569
Walmart Bakery,"1424 W 47th St, Chicago, IL 60609, USA",41.8099599,-87.6608976,ChIJf_9USXwuDogRN5E0L0G268g,-87.6608976,41.8099599
Walmart Bakery,"10900 S Doty Ave, Chicago, IL 60628, USA",41.6932112,-87.5989856,ChIJ6S7kKosmDogRXV76mshvOsI,-87.5989856,41.6932112
Walmart Neighborhood Market,"7535 S Ashland Ave, Chicago, IL 60620, USA",41.7562573,-87.66276,ChIJRawDBaIvDogRF8l1UdyfkyY,-87.66276,41.7562573
Walmart Neighborhood Market,"4720 S Cottage Grove Ave, Chicago, IL 60615, USA",41.8088747,-87.6071503,ChIJT1j5RVopDogRzMWE8i56Nfc,-87.6071503,41.8088747
Walmart Neighborhood Market,"2844 N Broadway St, Chicago, IL 60657, USA",41.9341994,-87.644858,ChIJBc-y5gnTD4gRS5eQGi7Te5A,-87.644858,41.9341994
Walmart Neighborhood Market,"2551 W Cermak Rd, Chicago, IL 60608, USA",41.8505849,-87.6901057,ChIJk5hxh4MtDogRWvPJxX-wC0w,-87.6901057,41.8505849
Walmart Supercenter,"8331 S Stewart Ave, Chicago, IL 60620, USA",41.7402375,-87.6330437,ChIJ2a4fblwvDogRRfw0Oh0gb8Y,-87.6330437,41.7402375
Walmart Supercenter,"4650 W North Ave, Chicago, IL 60639, USA",41.9116163,-87.7428302,ChIJjTi7wdvMD4gRN3Mx4Emra3Q,-87.7428302,41.9116163
Walmart Supercenter,"4626 W Diversey Ave, Chicago, IL 60639, USA",41.9347406,-87.7429913,ChIJ-WtCIPnMD4gR9XFszDkfHDY,-87.7429913,41.9347406
Walmart Supercenter,NA NA,41.74873592,-87.9998652,w547783937,-87.9998652,41.74873592
Walmart Supercenter,NA NA,41.949795,-88.033948,n1783229685,-88.033948,41.949795
Walmart Supercenter,NA NA,41.8717739,-87.9628408,n4978516623,-87.9628408,41.8717739
Walmart Supercenter,NA NA,41.648217,-87.734201,n5315598249,-87.734201,41.648217
Walmart Supercenter,NA NA,41.765639,-87.745478,n5315600764,-87.745478,41.765639
Walmart Supercenter,NA NA,41.777587,-87.863305,n5315600782,-87.863305,41.777587
Washington Food Market Cellular,"3208 W Washington Blvd, Chicago, IL 60624, USA",41.8831216,-87.7065846,ChIJ2QQ1uqQyDogRLFdQtqikfEk,-87.7065846,41.8831216
Watkins Products,"11000 S Michigan Ave, Chicago, IL 60628, USA",41.6941879,-87.621241,ChIJhQY2AiskDogRmdTj6irIjXY,-87.621241,41.6941879
Wellington Capital Market LLC,"440 S LaSalle St # 1600, Chicago, IL 60605, USA",41.8759718,-87.6324278,ChIJrQfti70sDogRxHNroY49KzM,-87.6324278,41.8759718
Wes Groceries,"3358 W Le Moyne St, Chicago, IL 60651, USA",41.9083787,-87.711739,ChIJacE1w0XND4gRDtMzVww5LtM,-87.711739,41.9083787
West Haven Market And Grill,"2132 W Washington Blvd, Chicago, IL 60612, USA",41.8832311,-87.6805836,ChIJe3FF40YtDogRYoG4WejGym8,-87.6805836,41.8832311
West Lawn Market,5838 South Pulaski Road,41.78657014,-87.72335985,w210156986,-87.72335985,41.78657014
West Side Grocery Chicago,"3859 W Madison St, Chicago, IL 60624, USA",41.8805631,-87.7230316,ChIJe1B3w8MyDogRRiuH-ACkfF8,-87.7230316,41.8805631
Western Meat & Grocery,"6504 S Western Ave, Chicago, IL 60636, USA",41.7753988,-87.6839979,ChIJtdDKkswvDogRKczoA7PG6sQ,-87.6839979,41.7753988
Whipple Food & Grocery,"3035 W Lawrence Ave, Chicago, IL 60625, USA",41.968371,-87.7049785,ChIJh8lS__rND4gRB857uJn1kKQ,-87.7049785,41.968371
White House Black Market,"520 N Michigan Ave #223, Chicago, IL 60611, USA",41.8915944,-87.6249225,ChIJ1e8DbqwsDogRHeXR3Faw2mw,-87.6249225,41.8915944
White House Black Market,"1112 S Delano CT West, Chicago, IL 60605, USA",41.8686884,-87.6329699,ChIJt3OjeZEsDogRiXRhMu8foHA,-87.6329699,41.8686884
White House Black Market,"901 W Weed St, Chicago, IL 60642, USA",41.9096971,-87.6513178,ChIJn9sKayTTD4gRJmIA9YIXNIg,-87.6513178,41.9096971
Whole Foods,6300 South Robert Kingery Highway,41.77293313,-87.94937186,w131604358,-87.94937186,41.77293313
Whole Foods,215 South Route 83,41.89401461,-87.96055335,w131644543,-87.96055335,41.89401461
Whole Foods,225 West Touhy Avenue,42.01092952,-87.82501043,w506375127,-87.82501043,42.01092952
Whole Foods Market,"5118 S Lake Park Ave, Chicago, IL 60615, USA",41.8019934,-87.5884577,ChIJFwLrxXEpDogR-FzzyUO9hJg,-87.5884577,41.8019934
Whole Foods Market,"832 W 63rd St, Chicago, IL 60621, USA",41.7805739,-87.6461941,ChIJh42rDeMuDogRxn5OVe5xsb0,-87.6461941,41.7805739
Whole Foods Market,"30 W Huron St, Chicago, IL 60654, USA",41.894997,-87.6292756,ChIJxzkRsrIsDogRKLO7cWU7_gY,-87.6292756,41.894997
Whole Foods Market,"1 N Halsted St, Chicago, IL 60661, USA",41.8823813,-87.6468836,ChIJ_0dl6sQsDogRpNhMwk50_BQ,-87.6468836,41.8823813
Whole Foods Market,"1101 Canal St #107, Chicago, IL 60607, USA",41.8685399,-87.6384767,ChIJxQqi1uwsDogROcamVhNxkGQ,-87.6384767,41.8685399
Whole Foods Market,"255 E Grand Ave, Chicago, IL 60611, USA",41.8915766,-87.6207436,ChIJxVeJtassDogRwL-J5730tjk,-87.6207436,41.8915766
Whole Foods Market,"959 W Fullerton Ave, Chicago, IL 60614, USA",41.9251567,-87.6532349,ChIJVYHYqxzTD4gRo5_ZrLSNREc,-87.6532349,41.9251567
Whole Foods Market,"1550 N Kingsbury St, Chicago, IL 60642, USA",41.9086945,-87.6529293,ChIJ0y-yHyTTD4gRwoR1Oudf9qw,-87.6529293,41.9086945
Whole Foods Market,"3201 N Ashland Ave, Chicago, IL 60657, USA",41.9400736,-87.6683154,ChIJe07x6lnSD4gRvyO9bKaD9FU,-87.6683154,41.9400736
Whole Foods Market,"3640 N Halsted St, Chicago, IL 60613, USA",41.9485208,-87.6498557,ChIJzV9C7rDTD4gRIsZDrVFGuco,-87.6498557,41.9485208
Whole Foods Market,"6009 North Broadway, Chicago, IL 60660, USA",41.9911763,-87.6597276,ChIJVYaFaZ7RD4gRgtq9O7jSxtA,-87.6597276,41.9911763
Whole Foods Market,"6020 N Cicero Ave, Chicago, IL 60646, USA",41.9900438,-87.7488434,ChIJkc4fUpHOD4gRCnOx5xUs6hk,-87.7488434,41.9900438
Whole Foods Market,7245 Lake Street,41.8874224,-87.8060739,n4497833053,-87.8060739,41.8874224
WIC food center,"2912 N Kenton Ave, Chicago, IL 60641, USA",41.9337025,-87.7423894,ChIJkTcXN_nMD4gR4oVKoU8ijKA,-87.7423894,41.9337025
WIC Food Center,3110 West Armitage Avenue,41.9176342,-87.7060134,n5136890523,-87.7060134,41.9176342
Wicker Park Farmers Market,"1425 N Damen Ave, Chicago, IL 60622, USA",41.9079678,-87.6770658,ChIJEy-IkMfSD4gR7rmADtZqMk4,-87.6770658,41.9079678
Windy City Produce Inc,"3340 N Pulaski Rd, Chicago, IL 60641, USA",41.9421948,-87.727627,ChIJYcf-VK_ND4gReLsl6ixG9Wo,-87.727627,41.9421948
Windy City Supermarket,"1132 W 76th St, Chicago, IL 60620, USA",41.7560858,-87.652822,ChIJO7e7UHMvDogRhTa_yGGkq_s,-87.652822,41.7560858
Winston's Sausages,"4701 W 63rd St, Chicago, IL 60629, USA",41.7781217,-87.7400575,ChIJj2UkKP4wDogRl0vaaA1rVD0,-87.7400575,41.7781217
Wixter Market,"2110 W Division St, Chicago, IL 60622, USA",41.903298,-87.680211,ChIJ4ybnVbbSD4gRSRPtiLuQ0Xo,-87.680211,41.903298
WNG Grocery & Variety,"4105 W 5th Ave, Chicago, IL 60624, USA",41.8719537,-87.7279995,ChIJBUx54eUyDogRc9aoLDlWbPM,-87.7279995,41.8719537
World Fresh Market,"2536 W Peterson Ave, Chicago, IL 60659, USA",41.9907606,-87.6935339,ChIJBVMA4uPRD4gRwgyRH2uTups,-87.6935339,41.9907606
World's Finest Chocolate Inc,"4319 S Pulaski Rd, Chicago, IL 60632, USA",41.8145622,-87.7223026,ChIJp6gcEokxDogRW0x3xgZJNjk,-87.7223026,41.8145622
Yassin Mohamd Grocery,"3042 W North Ave, Chicago, IL 60647, USA",41.9102906,-87.7038683,ChIJDfvqvlvND4gRWHLvchAFNfY,-87.7038683,41.9102906
Yousef Grocery Store,"616 S Pulaski Rd, Chicago, IL 60624, USA",41.872752,-87.7255259,ChIJW9kBz-gyDogRPG1JcK7MWzM,-87.7255259,41.872752
Zabiha Halal Safa Market,"2319 W Devon Ave, Chicago, IL 60659, USA",41.9976688,-87.6882913,ChIJ8SVnL93RD4gRKic1e7GFZYQ,-87.6882913,41.9976688
Zaleski & Horvath MarketCafe,"1323 E 57th St, Chicago, IL 60637, USA",41.7912649,-87.593885,ChIJKRCPChQpDogR5PTdovsJStE,-87.593885,41.7912649
Zavalas grocery,"2657 S Kolin Ave, Chicago, IL 60623, USA",41.8424218,-87.7327374,ChIJSVHK8EsyDogRZgg70Vvo0qw,-87.7327374,41.8424218
Zullos Markets LLC,"1103 W Grand Ave, Chicago, IL 60642, USA",41.8909622,-87.655064,ChIJP9VSIdQsDogRE8_qtgPgxHs,-87.655064,41.8909622